{"type": "FeatureCollection", "features": [{"type": "Feature", "geometry": {"type": "MultiPolygon", "coordinates": [[[[-73.9986123163754, 40.7273162326429], [-73.9983474059012, 40.7276135907727], [-73.9969646325355, 40.7269297251359], [-73.9968466622961, 40.7268713797411], [-73.9975829303054, 40.7260009879452], [-73.9977037157103, 40.7260560043055], [-73.9990432209171, 40.7267158532833], [-73.9986485758538, 40.7271822031542], [-73.9986123163754, 40.7273162326429]]], [[[-73.9984152161825, 40.7276471257221], [-73.998672320064, 40.7273433126176], [-73.9990614240014, 40.727535741702], [-73.9988043212598, 40.7278395565874], [-73.9984152161825, 40.7276471257221]]], [[[-73.9968025731106, 40.7271213013105], [-73.9986489563693, 40.7280344178199], [-73.9984057979223, 40.7283217391553], [-73.997973106651, 40.7288330089196], [-73.9977320104993, 40.7291178857897], [-73.9977317026741, 40.7291182487026], [-73.9958856038167, 40.7282052679679], [-73.9968025731106, 40.7271213013105]]], [[[-73.9977156511744, 40.7293290358742], [-73.9972881000199, 40.7298350954081], [-73.9966995270024, 40.7295467038122], [-73.9965478626852, 40.7294723894164], [-73.9956120052651, 40.7290138212112], [-73.9952987437267, 40.7288603207413], [-73.9957263049454, 40.7283542693642], [-73.9960395626708, 40.7285077687639], [-73.9969754159262, 40.7289663343636], [-73.9971270806679, 40.7290406473651], [-73.9977156511744, 40.7293290358742]]], [[[-73.996139687323, 40.7294395627905], [-73.9964480078843, 40.7295911571168], [-73.9962237291931, 40.7298583039426], [-73.9960581444092, 40.730055534984], [-73.9958308239126, 40.7299439305471], [-73.9957213767647, 40.7298901995368], [-73.9954315411374, 40.7297479088748], [-73.9956290964364, 40.7295124641547], [-73.9958215197067, 40.7292831251862], [-73.996139687323, 40.7294395627905]]], [[[-73.9975450921891, 40.7299415880504], [-73.9979507672133, 40.7294548125647], [-73.9982579982998, 40.7296055375613], [-73.9980782586914, 40.7298143329065], [-73.9981455987518, 40.729847369215], [-73.9979119386603, 40.7301188019073], [-73.9975450921891, 40.7299415880504]]], [[[-73.995620958598, 40.7313814145455], [-73.9955331759567, 40.7313441932126], [-73.9952584600423, 40.7312277104299], [-73.9955936901342, 40.7308301330205], [-73.9958575147052, 40.7309595332783], [-73.9959418165768, 40.7310008812909], [-73.9960261196542, 40.731042229324], [-73.9961048155321, 40.7310808268573], [-73.9967727495181, 40.7314084246448], [-73.9965136288698, 40.7317599134631], [-73.9957906859935, 40.7314533814556], [-73.9957087413373, 40.7314186358951], [-73.995620958598, 40.7313814145455]]], [[[-73.9960095582526, 40.731742232737], [-73.9958461436365, 40.7319638969915], [-73.9956881186462, 40.731897676815], [-73.9958519763201, 40.7316754157156], [-73.9957718899237, 40.7316414483085], [-73.9956078023021, 40.7318640208385], [-73.9954494522601, 40.731797664372], [-73.9953710278223, 40.7317647998976], [-73.9952128154997, 40.7316985006701], [-73.9949532183999, 40.7315897153777], [-73.995196616891, 40.7313010533678], [-73.9954321855021, 40.7314009410623], [-73.9955899557383, 40.7314678414928], [-73.9956681597425, 40.7315010020531], [-73.9958260678106, 40.7315679588851], [-73.9959061588764, 40.7316019199794], [-73.9959849503481, 40.7316353288992], [-73.9960637418989, 40.731668737765], [-73.9960095582526, 40.731742232737]]], [[[-73.9953252332013, 40.7273410444275], [-73.9959501125283, 40.7276471735524], [-73.9955681389771, 40.7280992105105], [-73.9949378851868, 40.7277976635151], [-73.9953252332013, 40.7273410444275]]], [[[-73.9952017595357, 40.7288127986732], [-73.9956294820872, 40.728306555909], [-73.9956930197743, 40.728337959042], [-73.9952654573081, 40.7288440111343], [-73.9952017595357, 40.7288127986732]]], [[[-73.9956034433164, 40.729175898903], [-73.9956867720666, 40.7292168716076], [-73.9954892736721, 40.7294496824762], [-73.995300972326, 40.7296716566847], [-73.9949549887043, 40.7295011748396], [-73.994825530357, 40.7294373833636], [-73.9946850354364, 40.7293681530596], [-73.9950744620309, 40.7289158016023], [-73.9952958793344, 40.729024673371], [-73.9956034433164, 40.729175898903]]], [[[-73.9949834965074, 40.7300709963848], [-73.994813926352, 40.7302721246983], [-73.9945468773179, 40.7301403454294], [-73.9942619863114, 40.729999760407], [-73.9941790457733, 40.7299588326251], [-73.9943462444032, 40.7297623877573], [-73.9945608923157, 40.7295101881236], [-73.9946437591714, 40.7295512029712], [-73.9951110254039, 40.7297824662601], [-73.9951927436382, 40.7298229106845], [-73.9949834965074, 40.7300709963848]]], [[[-73.9956369738948, 40.7300427703895], [-73.9959420846587, 40.7301937743736], [-73.9955651016383, 40.7306427973101], [-73.9952543823146, 40.730489470615], [-73.9951369672352, 40.7304315332876], [-73.9949335200512, 40.7303311394114], [-73.9951033751744, 40.7301328151464], [-73.9953164028989, 40.7298841133926], [-73.9956369738948, 40.7300427703895]]], [[[-73.9934654033732, 40.7284522900316], [-73.9934155381142, 40.7285109094183], [-73.9938504395042, 40.7287252842256], [-73.993801452716, 40.7287828673551], [-73.9933665712338, 40.7285684697784], [-73.9933168950845, 40.7286268640028], [-73.9932279701376, 40.7287313944156], [-73.9927972880207, 40.728519075149], [-73.9929838920916, 40.7282981341681], [-73.9932307746456, 40.7280058185137], [-73.9936694410218, 40.7282220439719], [-73.9935175206383, 40.7284006298679], [-73.9936222359661, 40.7284522546482], [-73.993575877368, 40.7285067536089], [-73.9934654033732, 40.7284522900316]]], [[[-73.9943147247719, 40.7285422490348], [-73.9949408297443, 40.7288500955884], [-73.9947816339378, 40.7290407063983], [-73.9946574567881, 40.7291894052843], [-73.9945521651046, 40.7293155013278], [-73.9942266393013, 40.7291556460425], [-73.9939269120779, 40.7290084676615], [-73.9940317760032, 40.7288823983475], [-73.9941277226898, 40.7287670598451], [-73.9943147247719, 40.7285422490348]]], [[[-73.9927406733516, 40.7293079046971], [-73.9927618792306, 40.7292829780948], [-73.9923313548142, 40.7290707363373], [-73.9925932416688, 40.7287606641635], [-73.9930228853994, 40.7289724708675], [-73.992972017715, 40.7290322642543], [-73.9934069010646, 40.7292466633075], [-73.99317333948, 40.729521211211], [-73.9927406733516, 40.7293079046971]]], [[[-73.9944177614757, 40.7294393472438], [-73.9942255080781, 40.7296690764887], [-73.9940402761824, 40.7298903535658], [-73.993441005793, 40.7295946254038], [-73.9938173701161, 40.7291421892041], [-73.9942635066217, 40.7293630008656], [-73.9944177614757, 40.7294393472438]]], [[[-73.9949761018335, 40.7312150670119], [-73.9947322850176, 40.73150223194], [-73.9944892488712, 40.7313988151717], [-73.994154391675, 40.7312563282502], [-73.9943867168906, 40.7309827149389], [-73.9946314378184, 40.7306944999064], [-73.9948391394998, 40.7304498826009], [-73.9949486922557, 40.7305030436361], [-73.9947408002673, 40.7307470919873], [-73.9949486176904, 40.7308470666664], [-73.9949908119715, 40.7307975432738], [-73.9952320902547, 40.7309135984876], [-73.9949761018335, 40.7312150670119]]]]}, "properties": {"campus_name": "New York University (56 lots)", "owner_key": "nyu", "owner_label": "New York University", "owner_kind": "institution", "lot_count": 56, "bldg_area_sqft": 7045676, "derivation": "contiguous lots, owner family 'nyu', snap=0.0003deg", "kind": "campus"}}, {"type": "Feature", "geometry": {"type": "MultiPolygon", "coordinates": [[[[-73.9429663058295, 40.8433826886968], [-73.943040057298, 40.8431843113723], [-73.9430767140344, 40.84307469082], [-73.9436101252915, 40.8431757738111], [-73.9436158131989, 40.8433368874487], [-73.9436170565635, 40.8434017847582], [-73.9436165313141, 40.8435207117031], [-73.9436115184961, 40.8436346973154], [-73.9436003916785, 40.8437712507646], [-73.9435816727121, 40.8438960048473], [-73.9435583959597, 40.8440175807529], [-73.9435377140851, 40.844103637956], [-73.9435171120794, 40.8441793809748], [-73.9434981176795, 40.8442526140898], [-73.9434486002667, 40.8444538761489], [-73.9434270920818, 40.8445393161038], [-73.9434085955688, 40.844598517092], [-73.9433746414813, 40.8446740202879], [-73.9433546126891, 40.844709714131], [-73.9433018125003, 40.8447881643003], [-73.9432663413285, 40.8448361692201], [-73.943238730888, 40.8448839106238], [-73.9432157332786, 40.8449342827675], [-73.9431963672832, 40.844983792249], [-73.9431808822846, 40.8450333864606], [-73.943136150755, 40.8452078556224], [-73.9430925345537, 40.8453812609203], [-73.9430491344588, 40.8455581763778], [-73.9428008797001, 40.8454757863653], [-73.9428662003011, 40.8452225101099], [-73.9428366109095, 40.8452156922291], [-73.9427475240239, 40.8451951618365], [-73.9428110197992, 40.8450092793487], [-73.9424615657083, 40.8448609393804], [-73.9425280423074, 40.8446662967641], [-73.9425748250065, 40.8445293316878], [-73.9426640577415, 40.8442680827532], [-73.9430092832898, 40.8444146299038], [-73.9430990135958, 40.8442904772604], [-73.9434316918776, 40.844378777587], [-73.9434903562897, 40.8442503438025], [-73.943112042675, 40.8441396826394], [-73.9427593414168, 40.843989604939], [-73.9427891847465, 40.8439017396972], [-73.9431385287285, 40.8440503893547], [-73.943266151483, 40.8436767286873], [-73.9429167879259, 40.8435280704442], [-73.9429446796748, 40.8434449299966], [-73.9429663058295, 40.8433826886968]]], [[[-73.9424628319122, 40.8442853738165], [-73.9424390885846, 40.8443544297277], [-73.9421328799288, 40.8442260851249], [-73.9421775521885, 40.844165801445], [-73.9424628319122, 40.8442853738165]]]]}, "properties": {"campus_name": "Columbia University (5 lots)", "owner_key": "columbia", "owner_label": "Columbia University", "owner_kind": "institution", "lot_count": 5, "bldg_area_sqft": 2698285, "derivation": "contiguous lots, owner family 'columbia', snap=0.0003deg", "kind": "campus"}}, {"type": "Feature", "geometry": {"type": "MultiPolygon", "coordinates": [[[[-73.9608159421905, 40.8057515723196], [-73.9607053147591, 40.8057050428833], [-73.9605972112123, 40.8056595758414], [-73.9604968183455, 40.8056173522198], [-73.9606751967843, 40.8053700264279], [-73.9608528076368, 40.8051237806351], [-73.9611719310413, 40.8052580016005], [-73.960994319801, 40.8055042469592], [-73.9608159421905, 40.8057515723196]]], [[[-73.9604816854674, 40.805288636213], [-73.9603033077403, 40.8055359617092], [-73.9599882426364, 40.8054034461554], [-73.9600864300791, 40.805122393141], [-73.9604816854674, 40.805288636213]]], [[[-73.9610283055053, 40.8060169384347], [-73.9613635742983, 40.806158073818], [-73.9611737014752, 40.8064061442698], [-73.9609747933524, 40.8066660176873], [-73.960656669554, 40.8065322233805], [-73.9603375386542, 40.8063980036931], [-73.9602583139519, 40.8063646840759], [-73.9600311588623, 40.8062691455055], [-73.9598282952931, 40.806183823908], [-73.9600184650431, 40.80592015379], [-73.9600095778285, 40.8059164163196], [-73.9601910545789, 40.805664797875], [-73.9604028018225, 40.8057538580377], [-73.9606086848725, 40.8058404493609], [-73.9608212768294, 40.8059298647611], [-73.9610283055053, 40.8060169384347]]], [[[-73.9602267279734, 40.8074503681065], [-73.9593226960254, 40.8070745655831], [-73.9591489593471, 40.8073127769266], [-73.9591645798935, 40.8073193768277], [-73.9589825224576, 40.8075689942615], [-73.9585752158758, 40.8073996566771], [-73.9589310714262, 40.8069117489954], [-73.9594132795024, 40.8062505891638], [-73.9608468182273, 40.8068584927666], [-73.9603646485776, 40.8075076980948], [-73.9602267279734, 40.8074503681065]]], [[[-73.9599094319692, 40.8081342956668], [-73.9597758264569, 40.8083244829866], [-73.959610974824, 40.8082551986564], [-73.9593849209781, 40.8085640279096], [-73.9590666110534, 40.8084302435812], [-73.9586779672048, 40.80826689775], [-73.9581122567189, 40.8080291277905], [-73.9582935613933, 40.8077814375657], [-73.9584778086135, 40.8075297283553], [-73.9587636485509, 40.8076504400645], [-73.9589540956745, 40.8077308649381], [-73.9591142022344, 40.8077984781037], [-73.9592748885551, 40.8078663343658], [-73.9594310929546, 40.807932297873], [-73.9595897502457, 40.8079992974792], [-73.9599094319692, 40.8081342956668]]], [[[-73.9594548386401, 40.808764571859], [-73.9593059022971, 40.808969374619], [-73.9591607857207, 40.8091689232197], [-73.9586879745352, 40.8089678032607], [-73.9581885061217, 40.8087553406164], [-73.9578131481317, 40.8085956698427], [-73.9580355235873, 40.8081647014233], [-73.958481087565, 40.8083530209218], [-73.9589813117226, 40.8085644397671], [-73.9594548386401, 40.808764571859]]], [[[-73.9581040669079, 40.8090146687621], [-73.9579173178266, 40.8092667681798], [-73.9575488759067, 40.8091118239123], [-73.9576883374073, 40.8088387703156], [-73.9581040669079, 40.8090146687621]]], [[[-73.9584953381568, 40.8095098447167], [-73.9584163214677, 40.8094766148633], [-73.9586023456872, 40.8092254923647], [-73.9589968580717, 40.8093924074101], [-73.9588114066921, 40.8096427589869], [-73.9584953381568, 40.8095098447167]]]]}, "properties": {"campus_name": "Columbia University (34 lots)", "owner_key": "columbia", "owner_label": "Columbia University", "owner_kind": "institution", "lot_count": 34, "bldg_area_sqft": 2564887, "derivation": "contiguous lots, owner family 'columbia', snap=0.0003deg", "kind": "campus"}}, {"type": "Feature", "geometry": {"type": "MultiPolygon", "coordinates": [[[[-73.8843314440086, 40.858344865984], [-73.8845066802868, 40.8583963443164], [-73.8842981508421, 40.8586359902744], [-73.8842121925215, 40.8587347734973], [-73.8840609403813, 40.8586557304388], [-73.8843314440086, 40.858344865984]]], [[[-73.8836584420023, 40.8588977996771], [-73.8836312880041, 40.8589307482974], [-73.8836035943476, 40.8589643509958], [-73.883576338041, 40.8589974255728], [-73.8835499160611, 40.8590294861222], [-73.8832750234678, 40.8588963462719], [-73.8832962110483, 40.8588706379666], [-73.8833014455289, 40.8588642848646], [-73.8833288136651, 40.8588310745196], [-73.8833443994751, 40.8588121619093], [-73.8830660171283, 40.8586773296262], [-73.8831160897929, 40.85861905468], [-73.8833930096233, 40.8587531776135], [-73.8834108928379, 40.8587314784706], [-73.8836857862321, 40.8588646198424], [-73.8836584420023, 40.8588977996771]]], [[[-73.8838599273237, 40.8589052570518], [-73.8841140784524, 40.8590356300009], [-73.8842325726403, 40.8589035532237], [-73.884498410785, 40.8590405934402], [-73.8841833353715, 40.8594061120874], [-73.8843435614355, 40.8594887874781], [-73.8843480467145, 40.8594911017061], [-73.8846631692111, 40.8591255269463], [-73.8847710483964, 40.8591811382706], [-73.884442492954, 40.8595398355049], [-73.8845411119328, 40.8595906795927], [-73.8846428687193, 40.8596432224119], [-73.884971482872, 40.8592844607572], [-73.8867337549947, 40.860192871705], [-73.886754692065, 40.8602036648174], [-73.8876448593656, 40.8606625050387], [-73.8881114524417, 40.8601568996471], [-73.8901976132603, 40.861243832339], [-73.8903958907398, 40.8613471360182], [-73.8903383651601, 40.8614264055834], [-73.8902912378672, 40.8614913474185], [-73.8899708864791, 40.8619387518967], [-73.8899902272787, 40.8619493394384], [-73.8899094239848, 40.8620469953385], [-73.8898378637267, 40.8621295767682], [-73.8897766276416, 40.8621975809598], [-73.8897223911998, 40.8622559025461], [-73.8896541696402, 40.8623268815042], [-73.8895975606124, 40.8623838878231], [-73.8895622031772, 40.8624186678641], [-73.8894003889256, 40.86258022571], [-73.8893261808712, 40.8626502649356], [-73.8891649030379, 40.8628024821368], [-73.8889489032354, 40.8629942554767], [-73.8888285477762, 40.8630965171754], [-73.8887314327945, 40.8631767761835], [-73.8887307853875, 40.8631773113089], [-73.888666543374, 40.8632293373001], [-73.8885616195983, 40.8633125521527], [-73.8884501942176, 40.863398622335], [-73.8883527411828, 40.8634720305572], [-73.8882123301898, 40.8635748558011], [-73.8880643717516, 40.8636796095804], [-73.8879410768801, 40.8637642044781], [-73.8878048851317, 40.8638542949545], [-73.8877001235845, 40.8639216551104], [-73.8876054870096, 40.8639811033991], [-73.8875269162002, 40.864029474052], [-73.887408001106, 40.8641010281738], [-73.8872417326612, 40.8641978387096], [-73.8870951750274, 40.8642799182735], [-73.8870050363245, 40.8643289670996], [-73.8867209365941, 40.864161710608], [-73.8866911773325, 40.8641604629845], [-73.8866701063013, 40.8641586872159], [-73.8866477711301, 40.864155987281], [-73.8866296707098, 40.8641531500357], [-73.8866195418249, 40.864151322013], [-73.8865977164465, 40.8641467369033], [-73.8865862061344, 40.8641439448623], [-73.8865731088364, 40.8641404704445], [-73.8865561270881, 40.8641354651027], [-73.8865359616668, 40.8641291651889], [-73.8865094056467, 40.8641205340297], [-73.8864896787868, 40.8641137339261], [-73.8864787445293, 40.8641098158933], [-73.8864689341707, 40.8641062169519], [-73.8864491824226, 40.864098702706], [-73.8864300748286, 40.8640910928002], [-73.8864188405186, 40.8640864612769], [-73.8864009511962, 40.8640788255446], [-73.8863892327316, 40.8640736532728], [-73.8863771719571, 40.8640681835081], [-73.8863566896073, 40.8640585542231], [-73.8863387868433, 40.8640497640627], [-73.886320527973, 40.8640404331962], [-73.8862852742179, 40.8640213080612], [-73.8862509771148, 40.8640012058894], [-73.8862231613493, 40.8639837278605], [-73.8861714623512, 40.8639484308207], [-73.8861420044929, 40.8639291483093], [-73.8861150014665, 40.8639108435045], [-73.8860726484598, 40.8638808523233], [-73.8860467180687, 40.8638616760024], [-73.8860161619262, 40.8638382357093], [-73.8860011184388, 40.8638263416576], [-73.8859795810116, 40.863808854462], [-73.8859452090869, 40.8637798732658], [-73.8854923349992, 40.8640213595543], [-73.8848349004595, 40.8643717460628], [-73.884479841487, 40.864561013705], [-73.8843540998206, 40.8645580016948], [-73.8843331257356, 40.8645325084612], [-73.8843235500296, 40.8645208690588], [-73.8843039194983, 40.8645296381337], [-73.8842912106906, 40.8645141919638], [-73.883949313137, 40.8640986198825], [-73.8821055220721, 40.8618574115543], [-73.8815299365874, 40.8613797275606], [-73.8809340328352, 40.8610163684674], [-73.8806860170459, 40.8608834519313], [-73.8808149933225, 40.8601987177315], [-73.8808442568669, 40.8600433601304], [-73.8809431711748, 40.8594603005342], [-73.8810483498837, 40.8589155677129], [-73.8810654000415, 40.8588613783758], [-73.8810875075199, 40.8588038814472], [-73.8811058040264, 40.8587630837183], [-73.881133317622, 40.8587094337913], [-73.8811515910279, 40.8586775877654], [-73.8811727668256, 40.858643600802], [-73.8812073904033, 40.8585933826655], [-73.8815510931966, 40.8581170069013], [-73.8816068851526, 40.8580444683884], [-73.8816190710013, 40.8580288537773], [-73.8816332314743, 40.8580132492214], [-73.8816467100145, 40.8580002977873], [-73.8816608486719, 40.8579882763084], [-73.8816771581822, 40.8579760238983], [-73.881693494895, 40.8579651996519], [-73.8817177203224, 40.8579513695173], [-73.8817438504273, 40.8579389569195], [-73.8817702721738, 40.8579286580022], [-73.8818041326014, 40.8579183416011], [-73.8818324187825, 40.8579119527787], [-73.8818669996744, 40.8579066743568], [-73.8818988454872, 40.8579041477553], [-73.8819285976193, 40.8579037496226], [-73.8819538271923, 40.857904891112], [-73.881982027009, 40.8579077933865], [-73.882019803108, 40.8579144758633], [-73.882046754132, 40.8579213273779], [-73.8823627859255, 40.8580068428108], [-73.8821882895996, 40.8582120722749], [-73.8820629397391, 40.8583594969438], [-73.8822112401173, 40.85843132748], [-73.88226578789, 40.8583685883357], [-73.8823153534669, 40.8583115810643], [-73.8823622022936, 40.8582576965739], [-73.8824135064565, 40.8581987523245], [-73.8827192381079, 40.8583468350063], [-73.8828272176333, 40.8582226435896], [-73.8825214673756, 40.8580745530556], [-73.8825384681116, 40.8580549693768], [-73.8827342378522, 40.8581080291194], [-73.8828000388213, 40.8581242156766], [-73.8829210671523, 40.8581546464358], [-73.8829993902654, 40.858170880722], [-73.8830380479723, 40.8581788928437], [-73.8830884692906, 40.8581879155088], [-73.8831748280229, 40.8582033510123], [-73.8832621425608, 40.8582189071346], [-73.8828834252733, 40.8586716955675], [-73.882832705366, 40.8587323353723], [-73.8829640933892, 40.8587959732148], [-73.8832454446039, 40.8589322432411], [-73.8835203324423, 40.859065381316], [-73.8836637192458, 40.8591348286871], [-73.8837574524673, 40.8590250551868], [-73.8838599273237, 40.8589052570518]]], [[[-73.8864609676115, 40.8598170583155], [-73.8864037891901, 40.8598786415909], [-73.8863560773775, 40.8598536735194], [-73.8865712827937, 40.8596218863469], [-73.8866190443072, 40.859646800336], [-73.8865655307396, 40.8597044376845], [-73.8865146596428, 40.8597592293634], [-73.8864609676115, 40.8598170583155]]]]}, "properties": {"campus_name": "Fordham University (21 lots)", "owner_key": "fordham", "owner_label": "Fordham University", "owner_kind": "institution", "lot_count": 21, "bldg_area_sqft": 2513666, "derivation": "contiguous lots, owner family 'fordham', snap=0.0003deg", "kind": "campus"}}, {"type": "Feature", "geometry": {"type": "MultiPolygon", "coordinates": [[[[-73.8166468703936, 40.7340011597319], [-73.8197474655162, 40.7343132952359], [-73.8198393281697, 40.7343225413294], [-73.8208882342994, 40.7344443730777], [-73.8212092247081, 40.7344816531988], [-73.8212243458224, 40.7344834092814], [-73.821016474136, 40.7355783099481], [-73.8215317291871, 40.7356312068009], [-73.8215705275377, 40.7355843477228], [-73.8215855207489, 40.7355919486643], [-73.8215992670167, 40.7355975180689], [-73.8216127236551, 40.7356019945848], [-73.8216387943288, 40.7356082439931], [-73.8216529958903, 40.7356104199925], [-73.8216758464839, 40.7356122231241], [-73.8216975126675, 40.7356120513689], [-73.8217187881165, 40.7356100977901], [-73.8228290692222, 40.7354824205358], [-73.8226133336868, 40.7376908712668], [-73.8229418537743, 40.7377111961327], [-73.8227844646441, 40.739322335599], [-73.8213891933823, 40.7390195432589], [-73.8215693765839, 40.738480167052], [-73.8207474914679, 40.7383004998191], [-73.8206863753594, 40.7385775157996], [-73.8201210020301, 40.7385028391219], [-73.8200761929775, 40.7387398561858], [-73.8200248884313, 40.7387314850241], [-73.8199708649924, 40.738722943022], [-73.817143033949, 40.7383325131403], [-73.8170687808853, 40.7383230254204], [-73.8170072643176, 40.7383165250742], [-73.8169510341818, 40.7383116477444], [-73.8169027143834, 40.738308263335], [-73.8168555998505, 40.7383056760141], [-73.816803803906, 40.7383036422535], [-73.8167575567334, 40.7383025402401], [-73.8167172306433, 40.7383021284604], [-73.8166704767974, 40.7383022908858], [-73.816636902363, 40.7383028309217], [-73.8165484209059, 40.738305955276], [-73.816481025756, 40.7383099946956], [-73.8164420892616, 40.7383157292226], [-73.8164084374169, 40.7383232839933], [-73.8163771435554, 40.7383326525086], [-73.8163389182074, 40.7383475310461], [-73.8163053689461, 40.7383642243451], [-73.8162768065691, 40.7383817071457], [-73.8162591825061, 40.7383943330018], [-73.8162374378568, 40.7384123318951], [-73.8162153273701, 40.7384342006659], [-73.8161983204378, 40.7384544385873], [-73.8161839515299, 40.738474970682], [-73.8160096954974, 40.7387613029551], [-73.8151213042962, 40.7384633577709], [-73.8151199268128, 40.7384562973813], [-73.8148770131621, 40.7372109614995], [-73.8148603154476, 40.7371335349547], [-73.8148436522841, 40.7370376731319], [-73.8148300211125, 40.736928647274], [-73.8148211963004, 40.7368013225666], [-73.8148195327153, 40.7367149475173], [-73.8148218232633, 40.736617914045], [-73.8149557206601, 40.7338971130806], [-73.8154378698688, 40.7339116727317], [-73.8158952378854, 40.7339254811396], [-73.8166468703936, 40.7340011597319]], [[-73.8186682734201, 40.7372538944849], [-73.8186409702065, 40.7372975884072], [-73.818369545603, 40.7372066225022], [-73.818297052101, 40.7373311539793], [-73.8184011587602, 40.7373660445428], [-73.8182838430835, 40.7375670198035], [-73.8187923432222, 40.7377374365952], [-73.818988107275, 40.737401148307], [-73.8190157990819, 40.7374104283571], [-73.8190365004792, 40.7373773005746], [-73.8186682734201, 40.7372538944849]], [[-73.8176674991445, 40.7374690770132], [-73.8178971696439, 40.7375460503483], [-73.817928547874, 40.7374921486097], [-73.8177779204933, 40.737441667353], [-73.8178028220154, 40.7373988937812], [-73.8177237790829, 40.7373724027019], [-73.8176674991445, 40.7374690770132]], [[-73.8178600277814, 40.7371622411643], [-73.8177052188424, 40.7371103583266], [-73.8176303155073, 40.7372390243369], [-73.8177851234764, 40.7372909081938], [-73.8178600277814, 40.7371622411643]], [[-73.8182936071532, 40.7348696120956], [-73.8184018726874, 40.734383112106], [-73.818414365972, 40.7343269714623], [-73.8176831746102, 40.7342302297503], [-73.8175678168277, 40.7347485787588], [-73.8179425657065, 40.7347981613702], [-73.8179371602324, 40.7348224530899], [-73.8182936071532, 40.7348696120956]]], [[[-73.8175711478094, 40.7385901597304], [-73.8177242715946, 40.7386092525478], [-73.8178618986988, 40.7386264133645], [-73.8179451841342, 40.7386367991408], [-73.8180095169379, 40.738644820868], [-73.8180763221248, 40.7386531507366], [-73.8181428066034, 40.7386614395696], [-73.8182269678907, 40.7386719346151], [-73.8180673476028, 40.7389568649117], [-73.8179909666222, 40.7389324817874], [-73.8179306291539, 40.7389132199826], [-73.8178700019303, 40.7388938658296], [-73.8178116150275, 40.7388752274731], [-73.8177360292015, 40.7388510975884], [-73.8176111245886, 40.738811223395], [-73.8174721582169, 40.738766860235], [-73.8173138590229, 40.7387163248144], [-73.817098623929, 40.7386476128907], [-73.8171595620555, 40.7385388371742], [-73.8173967235981, 40.7385684097657], [-73.8175711478094, 40.7385901597304]]], [[[-73.8165330729757, 40.7386369535815], [-73.8165898397182, 40.738655155977], [-73.8166491779644, 40.7386741828131], [-73.8167115610189, 40.7386941869325], [-73.8167715664875, 40.7387134281859], [-73.8168331511439, 40.7387331752183], [-73.8168887540703, 40.7387510045824], [-73.8169512152974, 40.7387710322045], [-73.8170102439604, 40.7387899601441], [-73.8170730316366, 40.7388100943848], [-73.8171308620997, 40.7388286386167], [-73.8171906951722, 40.7388478234913], [-73.8172510581795, 40.7388671785033], [-73.81736907544, 40.7389050214326], [-73.8174293923953, 40.738924361805], [-73.8174882237434, 40.7389432261893], [-73.8175473673313, 40.7389621900923], [-73.8176082688017, 40.7389817177763], [-73.8176670824482, 40.7390005766042], [-73.8177282382819, 40.7390201856094], [-73.8177863919771, 40.7390388326745], [-73.8178484835132, 40.7390587411786], [-73.8179074356496, 40.7390776442744], [-73.8179856392765, 40.7391027191949], [-73.817843786522, 40.7393559333958], [-73.8177655827656, 40.7393308574613], [-73.8177066315447, 40.739311954379], [-73.8176445386056, 40.7392920457122], [-73.8175863847272, 40.7392733986612], [-73.8175252288131, 40.7392537894964], [-73.8174664137753, 40.7392349305962], [-73.817405513327, 40.7392154020035], [-73.8173463695507, 40.7391964388634], [-73.8172875368093, 40.7391775744891], [-73.8172272208784, 40.7391582330411], [-73.8171092031373, 40.7391203908877], [-73.8170488399417, 40.739101035802], [-73.8169890055832, 40.7390818508526], [-73.8169311773589, 40.7390633066378], [-73.8168683869569, 40.7390431731541], [-73.8168093582183, 40.7390242451413], [-73.8167468968005, 40.7390042166067], [-73.8166912949104, 40.738986387178], [-73.8166297100648, 40.7389666390652], [-73.8165697031969, 40.738947398658], [-73.8165073199437, 40.7389273953813], [-73.8164479803054, 40.7389083675508], [-73.8163912158066, 40.7388901651736], [-73.8163277184656, 40.7388698042159], [-73.8162545937421, 40.7388463553515], [-73.816396451447, 40.7385931440101], [-73.8164695758324, 40.738616592785], [-73.8165330729757, 40.7386369535815]]]]}, "properties": {"campus_name": "Dormitory Authority of the State of NY (6 lots)", "owner_key": "nys_dasny", "owner_label": "Dormitory Authority of the State of NY", "owner_kind": "state", "lot_count": 6, "bldg_area_sqft": 2326836, "derivation": "contiguous lots, owner family 'nys_dasny', snap=0.0003deg", "kind": "campus"}}, {"type": "Feature", "geometry": {"type": "MultiPolygon", "coordinates": [[[[-73.9398067850645, 40.6569596566596], [-73.9397950668191, 40.6568458494838], [-73.9402456370121, 40.6568189420001], [-73.9411009582682, 40.656765670863], [-73.9410276690009, 40.6560832123676], [-73.9470375354516, 40.6557087216279], [-73.9471977423108, 40.6572246710222], [-73.9416004224213, 40.6575727330878], [-73.9402760791846, 40.6576550455925], [-73.9402020439004, 40.6569360522762], [-73.9398067850645, 40.6569596566596]]], [[[-73.9415113038695, 40.6598881970271], [-73.9398667653411, 40.6599910877656], [-73.9396832014133, 40.6582761461981], [-73.9397454858051, 40.6578692838346], [-73.9421620465209, 40.6577193175462], [-73.942350169062, 40.6594281078445], [-73.9414667427229, 40.6594833893685], [-73.9415113038695, 40.6598881970271]]]]}, "properties": {"campus_name": "NYC Health + Hospitals / state hospitals (3 lots)", "owner_key": "nysp_hospitals", "owner_label": "NYC Health + Hospitals / state hospitals", "owner_kind": "state", "lot_count": 3, "bldg_area_sqft": 2321425, "derivation": "contiguous lots, owner family 'nysp_hospitals', snap=0.0003deg", "kind": "campus"}}, {"type": "Feature", "geometry": {"type": "Polygon", "coordinates": [[[-73.8869900341779, 40.7455883185439], [-73.8862788439635, 40.7456329266681], [-73.8844874512969, 40.7458242389993], [-73.8841206944707, 40.7458334510321], [-73.8840008567028, 40.7457801365617], [-73.8851239043976, 40.744121696914], [-73.8872252470512, 40.745015499429], [-73.887479120522, 40.7451234799192], [-73.8882666408665, 40.7454584321667], [-73.8875531311959, 40.7455310282412], [-73.8873220014249, 40.7455545433743], [-73.8869900341779, 40.7455883185439]]]}, "properties": {"campus_name": "NYC Health + Hospitals / state hospitals (3 lots)", "owner_key": "nysp_hospitals", "owner_label": "NYC Health + Hospitals / state hospitals", "owner_kind": "state", "lot_count": 3, "bldg_area_sqft": 1622553, "derivation": "contiguous lots, owner family 'nysp_hospitals', snap=0.0003deg", "kind": "campus"}}, {"type": "Feature", "geometry": {"type": "Polygon", "coordinates": [[[-73.8973756852951, 40.8710885470488], [-73.8970998233738, 40.8714435731457], [-73.8965748428391, 40.872119194528], [-73.8940367986012, 40.8753852968623], [-73.8937408739086, 40.8752514507557], [-73.8944407905589, 40.8743609930497], [-73.8938273055897, 40.8740835111268], [-73.8937717252902, 40.8741542221611], [-73.8937406626382, 40.8741401729904], [-73.8936109762314, 40.8743051662087], [-73.8928204399209, 40.8739475935386], [-73.8928611986249, 40.8738957398751], [-73.8924325430082, 40.8737018476883], [-73.8927479012321, 40.8733006465914], [-73.8926236569095, 40.8732444459069], [-73.8929293486889, 40.8728555359311], [-73.8928827553395, 40.8728344617844], [-73.8943813461859, 40.8709278454459], [-73.8945489036948, 40.8708465684093], [-73.8946619815727, 40.8707917409155], [-73.894755537597, 40.8707463822168], [-73.8948656164123, 40.8706930087846], [-73.8948986919264, 40.870677020147], [-73.8949669880717, 40.8706440055081], [-73.8950680481375, 40.8705894836583], [-73.8951638740405, 40.8705297521497], [-73.8952539768859, 40.8704650969149], [-73.8953774762734, 40.870359590565], [-73.8954514508556, 40.8702840615913], [-73.8954877045135, 40.8702397984124], [-73.896459488269, 40.8706766832373], [-73.8973756852951, 40.8710885470488]], [[-73.8948417360295, 40.8729762705737], [-73.8955805192514, 40.8733104221035], [-73.8960211366377, 40.8727498145247], [-73.8952823574302, 40.8724156657819], [-73.8948417360295, 40.8729762705737]]]}, "properties": {"campus_name": "Dormitory Authority of the State of NY (3 lots)", "owner_key": "nys_dasny", "owner_label": "Dormitory Authority of the State of NY", "owner_kind": "state", "lot_count": 3, "bldg_area_sqft": 1517963, "derivation": "contiguous lots, owner family 'nys_dasny', snap=0.0003deg", "kind": "campus"}}, {"type": "Feature", "geometry": {"type": "MultiPolygon", "coordinates": [[[[-73.9507744637202, 40.8186046820085], [-73.9507947258586, 40.8185836586442], [-73.9508159541339, 40.8185640440921], [-73.9508385009304, 40.818545395358], [-73.95086876605, 40.8185209606893], [-73.9509055519774, 40.81849125098], [-73.9520320132146, 40.8189659527244], [-73.9498386473183, 40.821969019121], [-73.9486815798169, 40.8214792838296], [-73.9496996300384, 40.820079155103], [-73.9503564248111, 40.8191758283313], [-73.9507198195977, 40.8186760176427], [-73.9507559411792, 40.8186264057542], [-73.9507744637202, 40.8186046820085]]], [[[-73.947660852458, 40.820344615554], [-73.9476576543721, 40.8203129517712], [-73.9476574533375, 40.8202942645572], [-73.9476573086178, 40.8202808453055], [-73.9476591764821, 40.8202571090259], [-73.9476598625805, 40.8202483898728], [-73.9476643928813, 40.8202168340056], [-73.9476705766475, 40.8201870024339], [-73.9476792348404, 40.8201579212372], [-73.9476904020214, 40.8201293319221], [-73.9476970874781, 40.8201156276447], [-73.9477093158155, 40.8200986408351], [-73.9477568679978, 40.8200330530763], [-73.9478483748475, 40.8199028088375], [-73.9481930972839, 40.8194409815913], [-73.9491859351612, 40.8198586396341], [-73.9489167720452, 40.8202295694403], [-73.9487288679754, 40.8201500721311], [-73.948646399377, 40.8202637438496], [-73.9488343036699, 40.820343240373], [-73.9488985987648, 40.8204633834144], [-73.9487826745624, 40.8206231664779], [-73.9489313215712, 40.8206860555251], [-73.9490315657084, 40.8205478818331], [-73.9490321285915, 40.8205481189207], [-73.9490798358408, 40.8205681615681], [-73.9484882477192, 40.8213835658109], [-73.9482845502543, 40.8212968423714], [-73.9480798627427, 40.8212096976544], [-73.9480578970658, 40.8211984189533], [-73.9480385537479, 40.8211867893079], [-73.9480202756505, 40.8211742074286], [-73.9480031219762, 40.8211607291438], [-73.9479881115669, 40.8211472455489], [-73.9479687576619, 40.8211249639808], [-73.9479452586473, 40.8210918690927], [-73.9479249383569, 40.8210578572262], [-73.9478339985965, 40.8208272503014], [-73.947696313853, 40.8204620096003], [-73.9476882843939, 40.8204407091703], [-73.9476759718268, 40.8204047864308], [-73.947660852458, 40.820344615554]]], [[[-73.9477891075989, 40.8212109549513], [-73.9477966659303, 40.8212210592158], [-73.9478046937712, 40.821230968266], [-73.947813165148, 40.8212406605867], [-73.9478220919618, 40.8212501279026], [-73.947831410045, 40.821259325343], [-73.9478411562552, 40.821268293248], [-73.9478513294058, 40.8212770047622], [-73.9478618928411, 40.8212854391232], [-73.9478728132133, 40.8212935665307], [-73.9478841000796, 40.8213014212056], [-73.9478957642562, 40.8213089699424], [-73.9479077356066, 40.821316197314], [-73.9479200580536, 40.8213231241721], [-73.9479339710119, 40.821330374001], [-73.947994153462, 40.8213565173821], [-73.9483715083659, 40.8215181513499], [-73.9480227802514, 40.8219984463555], [-73.9473835324681, 40.8217311557528], [-73.947775829498, 40.8211908651278], [-73.9477820082074, 40.8212006509486], [-73.9477891075989, 40.8212109549513]]], [[[-73.9484288348436, 40.8224169587533], [-73.9481014073397, 40.8222776221531], [-73.9481401370016, 40.8222251793346], [-73.9484676140915, 40.8223645356763], [-73.9484288348436, 40.8224169587533]]]]}, "properties": {"campus_name": "Dormitory Authority of the State of NY (6 lots)", "owner_key": "nys_dasny", "owner_label": "Dormitory Authority of the State of NY", "owner_kind": "state", "lot_count": 6, "bldg_area_sqft": 1496810, "derivation": "contiguous lots, owner family 'nys_dasny', snap=0.0003deg", "kind": "campus"}}, {"type": "Feature", "geometry": {"type": "MultiPolygon", "coordinates": [[[[-73.9575384225779, 40.7603609541482], [-73.9575910713816, 40.7603236620282], [-73.9581599786999, 40.7605614250508], [-73.9577964980715, 40.7610602909905], [-73.9570524076287, 40.7607434912785], [-73.9570489838899, 40.7606902170042], [-73.9573505564264, 40.7604940181464], [-73.9575384225779, 40.7603609541482]]], [[[-73.9554657685331, 40.761407061623], [-73.9555033996339, 40.7613737457817], [-73.9555129836858, 40.7613800053246], [-73.9554753524768, 40.7614133202476], [-73.9554657685331, 40.761407061623]]], [[[-73.9552396000508, 40.761606232268], [-73.9552775770381, 40.7615731444422], [-73.9552870958137, 40.761579461619], [-73.9552491200376, 40.7616125493647], [-73.9552396000508, 40.761606232268]]], [[[-73.9550223862176, 40.7618050313301], [-73.9550130025149, 40.7617985989841], [-73.9550516757662, 40.761765982511], [-73.9550610606782, 40.7617724148543], [-73.9550223862176, 40.7618050313301]]], [[[-73.9547837050048, 40.7620025158734], [-73.9548218328926, 40.7619695291525], [-73.954831323277, 40.7619758714529], [-73.9547931953903, 40.7620088582607], [-73.9547837050048, 40.7620025158734]]], [[[-73.9538327221304, 40.7633915813313], [-73.9538367544579, 40.7633870281644], [-73.9538380117584, 40.7633876715956], [-73.9539307482965, 40.7632829701464], [-73.9539294909953, 40.7632823267175], [-73.9539335233096, 40.7632777735484], [-73.9539347806107, 40.7632784170611], [-73.9540370971685, 40.7631786946129], [-73.9540358540741, 40.7631780340403], [-73.9540399905342, 40.7631735349517], [-73.9540412336286, 40.7631741955256], [-73.9541339898099, 40.7630694714142], [-73.9541327467166, 40.7630688108413], [-73.9543275528121, 40.7628488670052], [-73.9543288113189, 40.7628495105141], [-73.9544291071692, 40.7627362712278], [-73.9544278498752, 40.762735627803], [-73.9544318832222, 40.7627310746165], [-73.9544331405179, 40.76273171804], [-73.9545138770534, 40.7626405631074], [-73.9545126185493, 40.7626399186804], [-73.9545166519949, 40.7626353655734], [-73.954517910499, 40.7626360099179], [-73.954594647108, 40.7625347765911], [-73.9545933744012, 40.7625341493923], [-73.9545973035635, 40.7625295430348], [-73.9545985750618, 40.7625301703156], [-73.954691775908, 40.7624324815555], [-73.9546906134164, 40.7624317417124], [-73.9546952505462, 40.7624275328469], [-73.9546964130372, 40.7624282735275], [-73.9547368893096, 40.7623888211795], [-73.9547831821617, 40.762336554228], [-73.9548454179962, 40.7622795217948], [-73.9548442507712, 40.7622787856318], [-73.954848956507, 40.7622746226326], [-73.9548501084291, 40.7622753722597], [-73.9549587434849, 40.7621798838955], [-73.9549575797824, 40.7621791449734], [-73.9549622559214, 40.7621749622148], [-73.9549634113661, 40.762175707408], [-73.9550720709773, 40.7620801972768], [-73.9550709060652, 40.7620794583568], [-73.9550756295911, 40.7620753061475], [-73.9550767778779, 40.7620760594499], [-73.9551854122843, 40.7619805699504], [-73.9551842663085, 40.7619798157285], [-73.9554203378805, 40.7617794838191], [-73.9554214672315, 40.7617802532588], [-73.9555296627262, 40.7616844759712], [-73.9555285120174, 40.7616837254312], [-73.9555332638598, 40.7616795921208], [-73.9555344062018, 40.7616803499357], [-73.9556426024718, 40.7615845724585], [-73.9556414518742, 40.7615838209997], [-73.9556462037018, 40.7615796886884], [-73.9556473460434, 40.7615804464184], [-73.9557555704736, 40.7614846878341], [-73.9557544197663, 40.7614839363776], [-73.9557591727893, 40.7614798048983], [-73.9557603163411, 40.7614805617076], [-73.9557681255421, 40.7614736497913], [-73.9557740764893, 40.7614775359055], [-73.9557967444205, 40.7614575236878], [-73.9558436136557, 40.7614160365298], [-73.9558635300846, 40.7613984023669], [-73.9558904675402, 40.761374550183], [-73.9558941778175, 40.7613712656919], [-73.9559373308269, 40.7613330656619], [-73.9559541731355, 40.7613181687483], [-73.9559746831221, 40.7612999945167], [-73.9559998254431, 40.761275779625], [-73.9560732284005, 40.7612204418864], [-73.9561437199739, 40.7611801108395], [-73.9562311019982, 40.7611378860808], [-73.9567883887332, 40.7609081596987], [-73.9568022562141, 40.7609036030042], [-73.9568236209619, 40.7608981530363], [-73.9568557192003, 40.7608959867232], [-73.9568787580194, 40.7608986328957], [-73.9568991540306, 40.7609041669387], [-73.9576738655342, 40.7612285962946], [-73.9556029800888, 40.7640705199036], [-73.9554787421376, 40.7642410977322], [-73.9537508317588, 40.7635145618975], [-73.9537322098152, 40.7635067407491], [-73.953737033781, 40.7635014539559], [-73.9537358474331, 40.7635008294603], [-73.9537399555578, 40.7634963150623], [-73.9537412021785, 40.7634969711228], [-73.9538339794327, 40.7633922247613], [-73.9538327221304, 40.7633915813313]], [[-73.9547913435936, 40.7623397830247], [-73.9543439183369, 40.7628448896878], [-73.9537508317588, 40.7635145618975], [-73.9547913435936, 40.7623397830247]]], [[[-73.9545360734773, 40.7622245413794], [-73.9545657582151, 40.7621868697175], [-73.9545765960832, 40.7621918069169], [-73.954546911457, 40.7622294795017], [-73.9545360734773, 40.7622245413794]]], [[[-73.9542901262797, 40.7624577576216], [-73.954326245671, 40.7624234888502], [-73.9543361046767, 40.7624294964478], [-73.9542999852872, 40.7624637652222], [-73.9542901262797, 40.7624577576216]]], [[[-73.9540836503616, 40.7626695984744], [-73.9541171726852, 40.762633835655], [-73.954127460672, 40.7626394111707], [-73.9540939395601, 40.7626751730721], [-73.9540836503616, 40.7626695984744]]], [[[-73.953887657634, 40.7628871901671], [-73.953919920473, 40.7628507641489], [-73.9539304005121, 40.762856129938], [-73.9538981364645, 40.7628925559598], [-73.953887657634, 40.7628871901671]]], [[[-73.9536844211686, 40.7631171425439], [-73.9537195835486, 40.763078900571], [-73.9537299378566, 40.7630844049525], [-73.9536947766914, 40.7631226470142], [-73.9536844211686, 40.7631171425439]]], [[[-73.9535092802665, 40.7633153225642], [-73.9535444427398, 40.7632770806445], [-73.9535547971743, 40.7632825851267], [-73.9535196334939, 40.7633208270478], [-73.9535092802665, 40.7633153225642]]]]}, "properties": {"campus_name": "Rockefeller Center / University (13 lots)", "owner_key": "rockefeller", "owner_label": "Rockefeller Center / University", "owner_kind": "private", "lot_count": 13, "bldg_area_sqft": 1483000, "derivation": "contiguous lots, owner family 'rockefeller', snap=0.0003deg", "kind": "campus"}}, {"type": "Feature", "geometry": {"type": "MultiPolygon", "coordinates": [[[[-73.9598598277152, 40.8176662324922], [-73.9601426122321, 40.8179740465469], [-73.9601249840593, 40.8179980882137], [-73.9597355415781, 40.8178357301965], [-73.959417150396, 40.817702992515], [-73.9590106366184, 40.817533513825], [-73.9589314524316, 40.8175005014066], [-73.9587797736106, 40.8174372639003], [-73.9586198166215, 40.817370576127], [-73.9585484940303, 40.8173408395174], [-73.9583831861432, 40.8172719198887], [-73.9579872749432, 40.8171068566022], [-73.9576669402909, 40.8169732992736], [-73.9577591971604, 40.8168474877707], [-73.9578519744372, 40.8167209649434], [-73.9580210145222, 40.8164904408935], [-73.958341348664, 40.8166239963293], [-73.9587372578691, 40.8167890592494], [-73.9589025650319, 40.816857978376], [-73.9589738860534, 40.8168877139308], [-73.9591338421276, 40.8169544020546], [-73.9592506125969, 40.8170030846201], [-73.959275959892, 40.8170306766946], [-73.9593334561059, 40.8170932635569], [-73.9596286353139, 40.8174145763366], [-73.9598598277152, 40.8176662324922]]], [[[-73.9594189460299, 40.8190191330772], [-73.9592419653899, 40.8192607360187], [-73.9588983259495, 40.8191156944572], [-73.9585825065125, 40.8189823934774], [-73.9587594864956, 40.8187407896974], [-73.9584445080168, 40.8186078416734], [-73.9582080863138, 40.8185080523438], [-73.9581305428659, 40.8184753217412], [-73.9579535588844, 40.8187169227254], [-73.9574025255674, 40.8184843355853], [-73.9572416816345, 40.818416441644], [-73.9570818156325, 40.8183489621229], [-73.9567583590443, 40.8182124285563], [-73.9571098213245, 40.8177326517522], [-73.9574332775118, 40.8178691834226], [-73.9575931427192, 40.8179366624618], [-73.95775398585, 40.8180045550818], [-73.9583050164221, 40.8182371413969], [-73.9583825620999, 40.8182698728058], [-73.9586189820084, 40.8183696627012], [-73.9590900548789, 40.8185684938314], [-73.9592497787813, 40.8186359112006], [-73.9595934152997, 40.8187809508056], [-73.9595419245342, 40.818851244474], [-73.9594189460299, 40.8190191330772]]], [[[-73.9606524090658, 40.8185312013975], [-73.9607345585382, 40.8186226901743], [-73.9608640666929, 40.8187669216981], [-73.960640321799, 40.8190212448478], [-73.9605167397217, 40.8191617143527], [-73.9601164648073, 40.8196166866239], [-73.9599323002671, 40.8195418329567], [-73.9598049381168, 40.8194900659101], [-73.9597711439433, 40.8194763305861], [-73.9595215715756, 40.8193748896168], [-73.9596682599254, 40.8191692045318], [-73.9597983504552, 40.8189867940687], [-73.9598671757562, 40.8188902875252], [-73.9599727260631, 40.8187422834575], [-73.9600083918351, 40.8186922759025], [-73.9602025992017, 40.8185182302732], [-73.9605403297723, 40.8186587769529], [-73.9606524090658, 40.8185312013975]]], [[[-73.9585201460584, 40.8165063612613], [-73.9581275478368, 40.8163441542478], [-73.9583624674298, 40.8160171292137], [-73.9586471576836, 40.8163295519817], [-73.9589822494942, 40.8166972824504], [-73.9585201460584, 40.8165063612613]]], [[[-73.9584435777926, 40.8174779753766], [-73.9586899273434, 40.8175806818176], [-73.9587629637084, 40.817611132146], [-73.9589982462387, 40.8177092243435], [-73.959395180226, 40.8178747094874], [-73.9596321224964, 40.8179734907422], [-73.9600234070467, 40.8181366169817], [-73.9598441449891, 40.8183810864219], [-73.9597981284897, 40.8184438404029], [-73.9596651889965, 40.818625138722], [-73.9592739023417, 40.81846201128], [-73.9590369600747, 40.8183632292987], [-73.958956662187, 40.8183297527012], [-73.9588758097381, 40.8182960443638], [-73.9586400240656, 40.8181977437698], [-73.9584047415455, 40.8180996508497], [-73.9583317023878, 40.818069200296], [-73.9582446328472, 40.818032898593], [-73.9580024026753, 40.8179319090632], [-73.957610612251, 40.8177685632763], [-73.957207129148, 40.8176003400864], [-73.9573441068343, 40.8174135476433], [-73.9573876751877, 40.8173541345724], [-73.9575199647754, 40.817173730994], [-73.9575653597264, 40.817111825063], [-73.9578101210592, 40.8172138735717], [-73.9581237216406, 40.8173446202805], [-73.9583606291989, 40.8174433915956], [-73.9584435777926, 40.8174779753766]]]]}, "properties": {"campus_name": "Columbia University (21 lots)", "owner_key": "columbia", "owner_label": "Columbia University", "owner_kind": "institution", "lot_count": 21, "bldg_area_sqft": 1342946, "derivation": "contiguous lots, owner family 'columbia', snap=0.0003deg", "kind": "campus"}}, {"type": "Feature", "geometry": {"type": "MultiPolygon", "coordinates": [[[[-73.9435417391158, 40.7851738710536], [-73.9443320904414, 40.7840903108528], [-73.946374992923, 40.7849522545656], [-73.9455897688279, 40.7860354645297], [-73.9435417391158, 40.7851738710536]]], [[[-73.9435935305796, 40.7856509461008], [-73.9436650426128, 40.7855530371922], [-73.9437366942744, 40.7854549327935], [-73.9443273059794, 40.7857034041204], [-73.9454802559404, 40.7861884377553], [-73.9454046420574, 40.7862920884025], [-73.9450775178558, 40.7861544696211], [-73.9450068138556, 40.7862512784852], [-73.9449718076157, 40.7862992098879], [-73.9448037252777, 40.786228383393], [-73.9446485915752, 40.7861630136332], [-73.944493143277, 40.7860975094069], [-73.9443378538337, 40.7860320724758], [-73.9441823741282, 40.7859665551799], [-73.9441540758169, 40.7859546305108], [-73.9435558476809, 40.7857025398941], [-73.9435935305796, 40.7856509461008]]]]}, "properties": {"campus_name": "NYC Health + Hospitals / state hospitals (3 lots)", "owner_key": "nysp_hospitals", "owner_label": "NYC Health + Hospitals / state hospitals", "owner_kind": "state", "lot_count": 3, "bldg_area_sqft": 1291738, "derivation": "contiguous lots, owner family 'nysp_hospitals', snap=0.0003deg", "kind": "campus"}}, {"type": "Feature", "geometry": {"type": "MultiPolygon", "coordinates": [[[[-73.9646662424643, 40.8040915487243], [-73.9643260119971, 40.8039476487232], [-73.9644935039005, 40.8037197571303], [-73.9648337346664, 40.8038636548863], [-73.9646662424643, 40.8040915487243]]], [[[-73.9646527403415, 40.8045836959951], [-73.9644711401675, 40.8048307829407], [-73.9643101739309, 40.8047627041559], [-73.9644917769401, 40.8045156174633], [-73.9641783391217, 40.8043830499245], [-73.9643638598125, 40.8041306318497], [-73.9646772957116, 40.8042631980514], [-73.9649999815063, 40.8043996761126], [-73.9648144623682, 40.8046520942802], [-73.9646527403415, 40.8045836959951]]], [[[-73.9655220959706, 40.8049513763036], [-73.9655696489343, 40.8048866752828], [-73.9658114135147, 40.8049889222992], [-73.9655822621714, 40.8053007139358], [-73.9651774317718, 40.805129500284], [-73.9650180423311, 40.8050620893142], [-73.964795532013, 40.8049679807209], [-73.964977132568, 40.8047208932701], [-73.9650465686326, 40.8047502606401], [-73.9651996435294, 40.8048150015183], [-73.9653590301394, 40.8048824113175], [-73.9655220959706, 40.8049513763036]]], [[[-73.964096744531, 40.8054858554105], [-73.963859884537, 40.8053861277559], [-73.96370480008, 40.8053208288906], [-73.9634659364972, 40.8052202550819], [-73.963384677281, 40.8051860409692], [-73.9632906814909, 40.8051464638579], [-73.9631192785412, 40.805074293664], [-73.9629416877948, 40.8049995169078], [-73.9631187339717, 40.804756785727], [-73.9632963254802, 40.8048315622136], [-73.9634677278866, 40.8049037321472], [-73.9634827737288, 40.8049100674218], [-73.9636670200645, 40.8046574619335], [-73.9637790873255, 40.8047046482238], [-73.9639842238508, 40.8047910216398], [-73.9642211731644, 40.8048907878116], [-73.964458033147, 40.8049905165737], [-73.9647761394119, 40.8051244526785], [-73.9648594893555, 40.8051595452892], [-73.9651853649763, 40.8052967505325], [-73.9654992975939, 40.8054289255225], [-73.9653150572873, 40.805681533907], [-73.9651380155595, 40.8059242684246], [-73.9647367495247, 40.8057553218257], [-73.9646726548534, 40.8057283358537], [-73.9646132521746, 40.8057033261501], [-73.9645520959397, 40.8056775764944], [-73.9644994528181, 40.8056554125595], [-73.9644415383681, 40.8056310280769], [-73.9646185818553, 40.8053882955377], [-73.964591897204, 40.8053770589995], [-73.9645662872155, 40.8053662775576], [-73.9643892448048, 40.8056090109392], [-73.9643331716515, 40.8055854005685], [-73.964272856821, 40.8055600067449], [-73.9642192518358, 40.8055374362171], [-73.9641556812078, 40.8055106698921], [-73.964096744531, 40.8054858554105]]], [[[-73.9637756487261, 40.8058514330183], [-73.9637086656693, 40.8058232308682], [-73.9635245408806, 40.8060756671721], [-73.9634586619739, 40.8060479289512], [-73.9633894692193, 40.8060187957089], [-73.9635735955739, 40.8057663596188], [-73.9635974627492, 40.8057764095477], [-73.9636427893587, 40.8057954936735], [-73.9636556802718, 40.8058009205397], [-73.9638325362452, 40.8055584484981], [-73.9639949364783, 40.8056268273875], [-73.9643089133085, 40.8057590236128], [-73.9641320585387, 40.8060014972976], [-73.9641482043404, 40.8060082947927], [-73.9639640793861, 40.8062607308693], [-73.9638954193924, 40.8062318213839], [-73.9640795433158, 40.8059793863355], [-73.9640259568823, 40.8059568229209], [-73.9639621691939, 40.8059299663225], [-73.963778043861, 40.8061824021052], [-73.9637088496147, 40.8061532681335], [-73.9638929739186, 40.8059008324597], [-73.963834218288, 40.8058760944507], [-73.9638180809153, 40.8058692987542], [-73.9637756487261, 40.8058514330183]]], [[[-73.964451744819, 40.8061360965948], [-73.9642676207725, 40.8063885331511], [-73.9642050600272, 40.8063621930808], [-73.964389184238, 40.8061097566233], [-73.964451744819, 40.8061360965948]]], [[[-73.9632850493901, 40.8053279296735], [-73.9631084541624, 40.8055700408148], [-73.9631872268093, 40.8056032088342], [-73.9633432983409, 40.805668921985], [-73.9633430362157, 40.8056692821387], [-73.9634068352926, 40.805696145359], [-73.963583693105, 40.8054536736954], [-73.9636469292629, 40.8054802997665], [-73.963470070509, 40.8057227724458], [-73.9635021365254, 40.8057362720921], [-73.9633180111939, 40.8059887080697], [-73.963238009376, 40.8059550228183], [-73.9630028373135, 40.8058560035467], [-73.9627658247494, 40.8057562077599], [-73.9629502136585, 40.8055034125858], [-73.9628681771352, 40.8054688710044], [-73.9630447729707, 40.8052267593072], [-73.9632850493901, 40.8053279296735]]]]}, "properties": {"campus_name": "Columbia University (45 lots)", "owner_key": "columbia", "owner_label": "Columbia University", "owner_kind": "institution", "lot_count": 45, "bldg_area_sqft": 1240296, "derivation": "contiguous lots, owner family 'columbia', snap=0.0003deg", "kind": "campus"}}, {"type": "Feature", "geometry": {"type": "MultiPolygon", "coordinates": [[[[-73.9637241531321, 40.7673049059897], [-73.9638267010493, 40.7673480993691], [-73.9640037766662, 40.7674226805593], [-73.9642059201015, 40.7675078204499], [-73.9640236131116, 40.7677586044501], [-73.9635418436729, 40.7675556901548], [-73.9637241531321, 40.7673049059897]]], [[[-73.9650966209073, 40.7675629307486], [-73.9647356134747, 40.768058484295], [-73.9642244809031, 40.767843205386], [-73.9645856272747, 40.7673477120292], [-73.9650966209073, 40.7675629307486]]], [[[-73.9654542744118, 40.7685364346079], [-73.9650943097127, 40.7690305567615], [-73.9637672924708, 40.7684707055373], [-73.964127263989, 40.7679765884098], [-73.9654542744118, 40.7685364346079]]]]}, "properties": {"campus_name": "Dormitory Authority of the State of NY (3 lots)", "owner_key": "nys_dasny", "owner_label": "Dormitory Authority of the State of NY", "owner_kind": "state", "lot_count": 3, "bldg_area_sqft": 1206420, "derivation": "contiguous lots, owner family 'nys_dasny', snap=0.0003deg", "kind": "campus"}}, {"type": "Feature", "geometry": {"type": "Polygon", "coordinates": [[[-73.9725599302364, 40.7622411003258], [-73.9729284600735, 40.7617356397067], [-73.9735236306991, 40.7619868306548], [-73.9736914311878, 40.7620576495931], [-73.9735152292144, 40.7622993263254], [-73.9733229054701, 40.7625631108726], [-73.973155103991, 40.7624922922391], [-73.9725599302364, 40.7622411003258]]]}, "properties": {"campus_name": "RXR / Rudin / Boston Properties (3 lots)", "owner_key": "rbc", "owner_label": "RXR / Rudin / Boston Properties", "owner_kind": "private", "lot_count": 3, "bldg_area_sqft": 1053612, "derivation": "contiguous lots, owner family 'rbc', snap=0.0003deg", "kind": "campus"}}, {"type": "Feature", "geometry": {"type": "Polygon", "coordinates": [[[-73.943826364792, 40.6983546786685], [-73.9438886550384, 40.6986667474627], [-73.9439350925773, 40.69889939768], [-73.9439634998749, 40.6990417168405], [-73.9439724803981, 40.6990867072383], [-73.9440363861595, 40.6994068669489], [-73.9440789942451, 40.6996203243832], [-73.9441160859, 40.699806142481], [-73.9442176756033, 40.7003150866116], [-73.9437261258287, 40.7003711203577], [-73.941903065338, 40.7005789192308], [-73.9413397686533, 40.7002547020775], [-73.9413739348965, 40.7002201794204], [-73.9414859473874, 40.7001077705311], [-73.9415966066727, 40.6999957192473], [-73.941578889499, 40.6999063037602], [-73.9415258346774, 40.699638547242], [-73.9414984734457, 40.6995004577366], [-73.9414728062195, 40.6993709222175], [-73.9414351636816, 40.6991809416914], [-73.9413291604154, 40.6986459463517], [-73.9434520677032, 40.6983983395308], [-73.943826364792, 40.6983546786685]]]}, "properties": {"campus_name": "NYC Health + Hospitals / state hospitals (3 lots)", "owner_key": "nysp_hospitals", "owner_label": "NYC Health + Hospitals / state hospitals", "owner_kind": "state", "lot_count": 3, "bldg_area_sqft": 941441, "derivation": "contiguous lots, owner family 'nysp_hospitals', snap=0.0003deg", "kind": "campus"}}, {"type": "Feature", "geometry": {"type": "MultiPolygon", "coordinates": [[[[-73.7970375538601, 40.6985731122977], [-73.7970392246418, 40.6985742462553], [-73.797165795242, 40.6985129515948], [-73.797557390681, 40.6983233091419], [-73.7980445939494, 40.6985749196978], [-73.7980121935762, 40.6986057091161], [-73.7983002036177, 40.6987745978171], [-73.7982983322919, 40.6987763757621], [-73.7991038056641, 40.6992749344162], [-73.7986715766911, 40.6995601087478], [-73.7985860052267, 40.699624073058], [-73.7985535516126, 40.6996543518655], [-73.7976100841746, 40.7000315603218], [-73.7974297487879, 40.7000664541031], [-73.7974501101102, 40.700095518089], [-73.7971124005372, 40.7002305354128], [-73.7970699451934, 40.7001699360172], [-73.7967825911362, 40.7002848192215], [-73.7964432137597, 40.6998004143855], [-73.7959659609444, 40.6991192034029], [-73.7959403180629, 40.6990826006407], [-73.7963220528963, 40.6989253282859], [-73.7965512271682, 40.6988125146457], [-73.7967034931955, 40.6987375600823], [-73.7970375538601, 40.6985731122977]]], [[[-73.7977426079708, 40.7002895413289], [-73.7983276369155, 40.7000560901067], [-73.7983524330704, 40.7000692171098], [-73.7984616494586, 40.700127036776], [-73.7982010539959, 40.7004198679508], [-73.7979106605398, 40.7005357481337], [-73.7977568946075, 40.7003104737048], [-73.7977426079708, 40.7002895413289]]], [[[-73.8010624272239, 40.7010372538709], [-73.8014057906668, 40.7012126195544], [-73.8013555541624, 40.7012470414655], [-73.800887440301, 40.7015677820664], [-73.8003289186472, 40.7017211599512], [-73.8003190622253, 40.7017211420162], [-73.8003366797081, 40.7017689384946], [-73.7999796058011, 40.7017572710359], [-73.7999069291978, 40.7017801853365], [-73.79987805593, 40.7017288021735], [-73.800249072947, 40.7016066290727], [-73.800326583206, 40.7015523716184], [-73.8010115588951, 40.7010728641142], [-73.8010359384225, 40.7010557974451], [-73.8006379594518, 40.7008900381342], [-73.800038855424, 40.7013341366895], [-73.7998779588489, 40.7009932870512], [-73.7996073231748, 40.7010663593616], [-73.7994441115524, 40.700942195846], [-73.7987664853137, 40.7011348803777], [-73.7987218572715, 40.7011528549377], [-73.7983965384653, 40.7012838732608], [-73.7983697507977, 40.7012448115941], [-73.797961631966, 40.7006496734677], [-73.7982735261431, 40.7005240629321], [-73.7983156364131, 40.7004774369751], [-73.7988095666811, 40.6999305426753], [-73.7988367211792, 40.6999004750646], [-73.8002392679028, 40.7006168349792], [-73.8010624272239, 40.7010372538709]]], [[[-73.7982132841212, 40.7013075616361], [-73.7988162588054, 40.7021769319116], [-73.7981811542303, 40.7022953327979], [-73.7976171997533, 40.7015662288715], [-73.7969527712206, 40.7006145674141], [-73.7969381840036, 40.7005936740629], [-73.7972570240016, 40.70046621532], [-73.797548854763, 40.7003495531514], [-73.797563367385, 40.700370476914], [-73.7982132841212, 40.7013075616361]]], [[[-73.7965882391854, 40.7004240934606], [-73.7955748105155, 40.7007617109504], [-73.7955534277116, 40.700731428308], [-73.7946642375281, 40.6994720866181], [-73.794642637642, 40.699441494536], [-73.7957099555728, 40.699147042574], [-73.7965882391854, 40.7004240934606]]], [[[-73.7953671200925, 40.7007986691179], [-73.7949556282304, 40.7009655019339], [-73.7946193268351, 40.7010704966792], [-73.7937245848349, 40.6998047505126], [-73.7939393216618, 40.6997187541105], [-73.7944588586711, 40.6995106925446], [-73.7944775650669, 40.6995372181755], [-73.7953671200925, 40.7007986691179]]], [[[-73.7941186737384, 40.700716767072], [-73.7940864971569, 40.7007300875579], [-73.793717107246, 40.7008830034999], [-73.7939328837487, 40.7011864231125], [-73.7943019123945, 40.7010336561753], [-73.7943340889694, 40.7010203356295], [-73.7944169060225, 40.7011370435166], [-73.7943847282017, 40.7011503631619], [-73.7935471090647, 40.7014971117427], [-73.792825712168, 40.7004826797962], [-73.7928079925876, 40.7004577621319], [-73.7931147020939, 40.700199978709], [-73.7935378569709, 40.6998982484341], [-73.7941186737384, 40.700716767072]]], [[[-73.793349846533, 40.7015787711784], [-73.792457940672, 40.7019479794513], [-73.7924200880514, 40.701963647635], [-73.792000639901, 40.7013738062259], [-73.7920313748039, 40.7013369622937], [-73.7924563992729, 40.7007532665682], [-73.792648179762, 40.7005920815326], [-73.7926658981122, 40.7006169982987], [-73.793349846533, 40.7015787711784]]], [[[-73.795798689302, 40.7010061721556], [-73.795786829802, 40.7009868062938], [-73.7967496204106, 40.7006640478182], [-73.7974292931822, 40.7016260995104], [-73.7973927475047, 40.7016423913049], [-73.7974839524262, 40.7017638925298], [-73.797521356123, 40.7017491250112], [-73.7979532748041, 40.7023175529847], [-73.7979151082575, 40.7023266793904], [-73.7969191452892, 40.702564789273], [-73.7969058082305, 40.7025684272428], [-73.7967220736904, 40.7026155572677], [-73.7963399494182, 40.7027139959739], [-73.7962337485009, 40.7027442625756], [-73.7959369400227, 40.7028326769495], [-73.7959266570647, 40.7028354809344], [-73.7948535094997, 40.7013144611621], [-73.7951516383197, 40.7011935487533], [-73.7955980440633, 40.7010474504348], [-73.7956103174757, 40.7010664667637], [-73.795798689302, 40.7010061721556]]], [[[-73.7945570995392, 40.7013349163048], [-73.7956843329174, 40.7029280975681], [-73.7956732598158, 40.7029315638096], [-73.7949968029293, 40.7031429121241], [-73.7935396117895, 40.7035007916192], [-73.7935074614566, 40.7035086089439], [-73.7933051177941, 40.7032544475063], [-73.7931909408383, 40.7031110326793], [-73.793024404185, 40.702901843711], [-73.7928807689528, 40.7027213690466], [-73.7929010040203, 40.702712989173], [-73.7933157988841, 40.7025412114802], [-73.7933191971316, 40.7025454662152], [-73.7937852493137, 40.702352457384], [-73.7937347611965, 40.702277737745], [-73.7928496790801, 40.7026442794269], [-73.7928269263678, 40.7026537020268], [-73.7926672608547, 40.7024532310618], [-73.792684421368, 40.7024461236073], [-73.7927175042951, 40.7024324242383], [-73.7926293787927, 40.702304096131], [-73.7925380425498, 40.7021710885352], [-73.793412115902, 40.7018091076493], [-73.7945570995392, 40.7013349163048]]]]}, "properties": {"campus_name": "Dormitory Authority of the State of NY (16 lots)", "owner_key": "nys_dasny", "owner_label": "Dormitory Authority of the State of NY", "owner_kind": "state", "lot_count": 16, "bldg_area_sqft": 855544, "derivation": "contiguous lots, owner family 'nys_dasny', snap=0.0003deg", "kind": "campus"}}, {"type": "Feature", "geometry": {"type": "MultiPolygon", "coordinates": [[[[-73.9998221466084, 40.7298962446154], [-73.9998624462053, 40.7298487347225], [-74.0000202538396, 40.7299266486678], [-73.999971894174, 40.7299836571565], [-74.0002840826813, 40.7301377986972], [-74.0001021888567, 40.7303522307944], [-73.9995616520864, 40.7300853507344], [-73.9997516082845, 40.7298614182812], [-73.9998221466084, 40.7298962446154]]], [[[-73.9985592009605, 40.7302936527736], [-73.9985004873479, 40.7302646619659], [-73.9986111154948, 40.7301342489494], [-73.9989518049545, 40.7303024621732], [-73.9989514332326, 40.7303029007166], [-73.9990307750357, 40.730342073516], [-73.9988295324426, 40.7305793079813], [-73.9987501892659, 40.7305401332043], [-73.9984661872717, 40.7303999088862], [-73.9985237193578, 40.7303320878009], [-73.9985257471631, 40.730333089242], [-73.9985592009605, 40.7302936527736]]], [[[-73.999590754067, 40.7309551476328], [-73.9989670144281, 40.7306471887682], [-73.9993864160769, 40.7301527746399], [-74.0000101507173, 40.7304607313361], [-73.999590754067, 40.7309551476328]]], [[[-74.000221934751, 40.730901144644], [-74.0001672639278, 40.730965772416], [-74.0001584412044, 40.730961479734], [-74.0000644360544, 40.7310722757018], [-73.9997967970434, 40.7309420620293], [-73.9999889649614, 40.7307148719835], [-74.0001953506867, 40.7308152802597], [-74.0002656309259, 40.7308494787818], [-74.000221934751, 40.730901144644]]], [[[-73.9997934049606, 40.7315115822875], [-73.9997672835857, 40.7315424922126], [-73.9998238255137, 40.7315702459506], [-73.9998932528259, 40.7316043248939], [-73.9997020325536, 40.7318306034427], [-73.9992440854298, 40.7316058128011], [-73.9993547012665, 40.7314749182996], [-73.9994614279688, 40.731348625239], [-73.9996262813564, 40.7311535469364], [-73.9998788089124, 40.7312785443493], [-73.9997659890595, 40.7314120499737], [-73.9998455327131, 40.7314498957713], [-73.9997934049606, 40.7315115822875]]]]}, "properties": {"campus_name": "New York University (7 lots)", "owner_key": "nyu", "owner_label": "New York University", "owner_kind": "institution", "lot_count": 7, "bldg_area_sqft": 828373, "derivation": "contiguous lots, owner family 'nyu', snap=0.0003deg", "kind": "campus"}}, {"type": "Feature", "geometry": {"type": "Polygon", "coordinates": [[[-73.9645946549471, 40.809082368452], [-73.9645980861793, 40.8090775545752], [-73.9646015743217, 40.8090727649767], [-73.9646051180565, 40.809067996981], [-73.9646087174885, 40.8090632542658], [-73.9646123727312, 40.8090585368337], [-73.9646160823527, 40.8090538427578], [-73.9646198476721, 40.8090491757227], [-73.9646236699035, 40.8090445330483], [-73.9646275418871, 40.8090399164915], [-73.9646314707797, 40.8090353268895], [-73.9646354517373, 40.8090307644109], [-73.9646394860811, 40.8090262289684], [-73.9646435749103, 40.8090217204812], [-73.9646477158062, 40.8090172391161], [-73.9646519076635, 40.8090127873817], [-73.9646561541186, 40.8090083646102], [-73.9646604502135, 40.8090039687914], [-73.9646647984836, 40.8089996036087], [-73.9646691989259, 40.8089952681394], [-73.9646736491202, 40.8089909623856], [-73.9646781490648, 40.8089866864295], [-73.9646826998599, 40.8089824411079], [-73.9646872994157, 40.8089782272564], [-73.9646919474001, 40.8089740440399], [-73.9646966463455, 40.8089698942182], [-73.9647013939401, 40.8089657749464], [-73.9647061864399, 40.8089616881487], [-73.9647110311125, 40.8089576329058], [-73.9647159196972, 40.8089536118932], [-73.9647208568189, 40.808949625112], [-73.964725838848, 40.8089456698011], [-73.964730869522, 40.8089417497243], [-73.9647359464232, 40.8089378637945], [-73.9647410660251, 40.8089340130146], [-73.9647462305316, 40.8089301956274], [-73.964751441263, 40.8089264133087], [-73.9647566959072, 40.8089226670603], [-73.9647619942421, 40.8089189567982], [-73.9647673353891, 40.808915282606], [-73.9647727202268, 40.8089116444002], [-73.9647781465554, 40.808908042264], [-73.9647836143723, 40.8089044779549], [-73.9647891259908, 40.8089009515561], [-73.9647946767875, 40.8088974602223], [-73.9648010810395, 40.8088934873543], [-73.965022441569, 40.8089859052718], [-73.9653905608274, 40.809139591831], [-73.9652840269041, 40.809285095606], [-73.9651823826051, 40.8094239235684], [-73.9650344522893, 40.809625961367], [-73.9648960283321, 40.8098150193579], [-73.9647977400077, 40.80994925819], [-73.9646975096894, 40.8100861482582], [-73.9645879187927, 40.8102358224393], [-73.9644778115023, 40.8103862050325], [-73.9641580425018, 40.8102527044937], [-73.9640933007752, 40.8103411249789], [-73.9637717103582, 40.8102068609975], [-73.9638828010518, 40.8100551430094], [-73.9640561562101, 40.8098183860497], [-73.9641563862338, 40.8096814956115], [-73.9642546766677, 40.8095472564844], [-73.9643931019991, 40.8093582010131], [-73.9645410311337, 40.8091561621864], [-73.9645840884468, 40.8090973576307], [-73.9645912806258, 40.8090872057695], [-73.9645946549471, 40.809082368452]]]}, "properties": {"campus_name": "Columbia University (15 lots)", "owner_key": "columbia", "owner_label": "Columbia University", "owner_kind": "institution", "lot_count": 15, "bldg_area_sqft": 779194, "derivation": "contiguous lots, owner family 'columbia', snap=0.0003deg", "kind": "campus"}}, {"type": "Feature", "geometry": {"type": "Polygon", "coordinates": [[[-73.9590784130768, 40.8160231298142], [-73.9591503594052, 40.8159229713604], [-73.959222087248, 40.8159526069379], [-73.9594005004609, 40.8160260189827], [-73.9595213506901, 40.8160762489075], [-73.9595337733912, 40.8160901902306], [-73.9595990368093, 40.8161634334501], [-73.9597030765752, 40.816280195009], [-73.9598907190007, 40.8164904796429], [-73.9604158760235, 40.816445268868], [-73.9604572059281, 40.8165806862927], [-73.9605027215247, 40.8166757385432], [-73.9605335866472, 40.8167315790251], [-73.9605733997168, 40.8167971848376], [-73.9605988045353, 40.8168364732095], [-73.9606484611083, 40.8169169144726], [-73.9606905427892, 40.8169868856864], [-73.9607152676035, 40.817033918052], [-73.9607267053669, 40.8170566775123], [-73.9607368502377, 40.8170930683012], [-73.9607405380476, 40.8171286256542], [-73.9607363191205, 40.8171714905415], [-73.9607202474958, 40.8172178606458], [-73.9606923978627, 40.8172637215986], [-73.960601685934, 40.8173851352396], [-73.9603116424859, 40.8172630626161], [-73.9596930383229, 40.817002383785], [-73.959518662344, 40.8168110283129], [-73.9591421193697, 40.8163978159306], [-73.958878411958, 40.816108421302], [-73.9591136744588, 40.8160376970255], [-73.9590784130768, 40.8160231298142]]]}, "properties": {"campus_name": "Columbia University (4 lots)", "owner_key": "columbia", "owner_label": "Columbia University", "owner_kind": "institution", "lot_count": 4, "bldg_area_sqft": 691606, "derivation": "contiguous lots, owner family 'columbia', snap=0.0003deg", "kind": "campus"}}, {"type": "Feature", "geometry": {"type": "Polygon", "coordinates": [[[-73.9555841355096, 40.7655059957881], [-73.95564427821, 40.7655311574225], [-73.955691923354, 40.7655510904116], [-73.9558049968639, 40.7655983959184], [-73.9558825618552, 40.7656308464537], [-73.95596531906, 40.7656654692279], [-73.9564427663741, 40.7658652113893], [-73.9566815046292, 40.7659650962035], [-73.9566863995864, 40.7659671358324], [-73.9564926560946, 40.7662298498145], [-73.9554981594404, 40.7658137945323], [-73.9552878276753, 40.7657257986668], [-73.9551613081829, 40.7656728664787], [-73.9548687618312, 40.7655504737589], [-73.9550625274631, 40.7652877706026], [-73.9552415789217, 40.7650450634793], [-73.9557631856546, 40.7652632869418], [-73.9555841355096, 40.7655059957881]]]}, "properties": {"campus_name": "Cornell University (incl. Cornell Tech) (3 lots)", "owner_key": "cornell", "owner_label": "Cornell University (incl. Cornell Tech)", "owner_kind": "institution", "lot_count": 3, "bldg_area_sqft": 691421, "derivation": "contiguous lots, owner family 'cornell', snap=0.0003deg", "kind": "campus"}}, {"type": "Feature", "geometry": {"type": "MultiPolygon", "coordinates": [[[[-73.9786698921185, 40.7379065271206], [-73.9786429965467, 40.7379432871305], [-73.9788527837436, 40.7380312973415], [-73.9788423478773, 40.738045558575], [-73.9787005633051, 40.7382393478602], [-73.978781733387, 40.7382733974978], [-73.9786004501637, 40.7385211701707], [-73.9785192786611, 40.7384871212427], [-73.9782771307423, 40.7383855354793], [-73.9781939590519, 40.7383506449063], [-73.9777927435335, 40.7381823228298], [-73.9779740300498, 40.7379345514168], [-73.9781531477203, 40.7376897402028], [-73.9786698921185, 40.7379065271206]]], [[[-73.9781124492407, 40.7384792174827], [-73.9784322848335, 40.7386140126201], [-73.9782694754345, 40.7388365316979], [-73.9780735691196, 40.739104283927], [-73.977753285358, 40.7389701000253], [-73.9773423214251, 40.7387979256393], [-73.9776095333996, 40.738432726614], [-73.9777020642273, 40.7383062574861], [-73.9780312141975, 40.7384449808827], [-73.9781124492407, 40.7384792174827]]]]}, "properties": {"campus_name": "New York University (6 lots)", "owner_key": "nyu", "owner_label": "New York University", "owner_kind": "institution", "lot_count": 6, "bldg_area_sqft": 653815, "derivation": "contiguous lots, owner family 'nyu', snap=0.0003deg", "kind": "campus"}}, {"type": "Feature", "geometry": {"type": "MultiPolygon", "coordinates": [[[[-73.9659417520737, 40.8056152999553], [-73.9662626930094, 40.8057494047837], [-73.9660767208769, 40.8060043578344], [-73.9658877979963, 40.8062632989995], [-73.9655668541281, 40.8061291913816], [-73.9657557778748, 40.8058702508207], [-73.9659417520737, 40.8056152999553]]], [[[-73.9666441092966, 40.8062414391532], [-73.9665822490624, 40.8062155914043], [-73.9665194979108, 40.8061893704939], [-73.9663305750163, 40.8064483132129], [-73.966271820214, 40.8064237619224], [-73.9661436530633, 40.8063702087049], [-73.9660576195367, 40.8063342588971], [-73.9662465419563, 40.8060753174566], [-73.9663325752525, 40.8061112662036], [-73.96636728085, 40.8061257671428], [-73.9665532509988, 40.8058708153857], [-73.9668300941195, 40.8059864923954], [-73.9666441092966, 40.8062414391532]]], [[[-73.96628540377, 40.8065878889513], [-73.9661000663413, 40.8068419309724], [-73.9659247830926, 40.8070822079193], [-73.9658502679953, 40.8070510718639], [-73.96580435443, 40.8070318875431], [-73.9657604268093, 40.8070135322715], [-73.9657146744506, 40.8069944145551], [-73.9656702574718, 40.8069758547247], [-73.9656255003786, 40.8069571533063], [-73.9655792955672, 40.8069378463311], [-73.9655294377442, 40.8069170146395], [-73.9654516053912, 40.8068844905118], [-73.9651176390454, 40.8067449414848], [-73.9651673334116, 40.8066768257342], [-73.965478265103, 40.8062506241777], [-73.9658122285137, 40.8063901721707], [-73.9660485918939, 40.8064889375838], [-73.96628540377, 40.8065878889513]]], [[[-73.9665839782198, 40.8070441297106], [-73.96676930842, 40.8067900842404], [-73.9670469366378, 40.806906087795], [-73.9669457984865, 40.8071953123802], [-73.9665839782198, 40.8070441297106]]], [[[-73.9665440702395, 40.8070988342109], [-73.9669235477456, 40.8072573944691], [-73.9669155747681, 40.8072800847852], [-73.966900806237, 40.8073221328486], [-73.966502563514, 40.8071557318662], [-73.9664086914514, 40.8072844055439], [-73.9661635129236, 40.8071819597941], [-73.9663388001971, 40.8069416843296], [-73.9664543972067, 40.8069899856325], [-73.966515131238, 40.8070153631211], [-73.9665839782198, 40.8070441297106], [-73.9665440702395, 40.8070988342109]]]]}, "properties": {"campus_name": "Columbia University (22 lots)", "owner_key": "columbia", "owner_label": "Columbia University", "owner_kind": "institution", "lot_count": 22, "bldg_area_sqft": 622559, "derivation": "contiguous lots, owner family 'columbia', snap=0.0003deg", "kind": "campus"}}, {"type": "Feature", "geometry": {"type": "MultiPolygon", "coordinates": [[[[-73.9862914441436, 40.6938633796259], [-73.9868284006121, 40.6938789509284], [-73.986823929191, 40.6939650556267], [-73.9869244692532, 40.6939679703699], [-73.9869188410958, 40.6940770488441], [-73.9870249159663, 40.6940801244206], [-73.9870191834851, 40.6941911957687], [-73.9870546246992, 40.69422229712], [-73.9870425979913, 40.6944553025928], [-73.9870421526969, 40.694463915079], [-73.9870211654889, 40.6948705402026], [-73.986241497393, 40.6948411856376], [-73.9862551251877, 40.6945744040242], [-73.9862551810321, 40.6945733018014], [-73.9862914441436, 40.6938633796259]]], [[[-73.9865446924648, 40.6954500321232], [-73.9861106314867, 40.6954338092038], [-73.9861127455357, 40.6954010487596], [-73.9860893325598, 40.6954001733519], [-73.986114795408, 40.695005540139], [-73.986565852637, 40.6950223990937], [-73.9865446924648, 40.6954500321232]]]]}, "properties": {"campus_name": "New York University (3 lots)", "owner_key": "nyu", "owner_label": "New York University", "owner_kind": "institution", "lot_count": 3, "bldg_area_sqft": 465118, "derivation": "contiguous lots, owner family 'nyu', snap=0.0003deg", "kind": "campus"}}, {"type": "Feature", "geometry": {"type": "MultiPolygon", "coordinates": [[[[-73.9652526376112, 40.807299303906], [-73.9650690447089, 40.8075509583854], [-73.9649070766962, 40.8074835672584], [-73.9650906700228, 40.8072319138705], [-73.9652526376112, 40.807299303906]]], [[[-73.9654086374045, 40.807364210085], [-73.96557031888, 40.8074314807083], [-73.9653867268169, 40.8076831339306], [-73.965225044913, 40.8076158648103], [-73.9654086374045, 40.807364210085]]], [[[-73.9645234501443, 40.8081518563747], [-73.9647091993034, 40.8078972533667], [-73.964379685417, 40.8077601511253], [-73.9645642788763, 40.8075071310652], [-73.9649730030094, 40.8076771898871], [-73.9647884094212, 40.8079302106781], [-73.9649495051428, 40.807997237868], [-73.9651064494368, 40.8080625365128], [-73.965183604103, 40.8080946382659], [-73.9649978560981, 40.8083492411087], [-73.9649207024367, 40.8083171401531], [-73.9647637577246, 40.8082518412594], [-73.9645234501443, 40.8081518563747]]], [[[-73.9652623738203, 40.8081274113181], [-73.9654469649444, 40.8078743898596], [-73.9655271529033, 40.8079077530389], [-73.965342561883, 40.8081607746257], [-73.9652623738203, 40.8081274113181]]], [[[-73.9657666352931, 40.8080073925037], [-73.9655820438045, 40.8082604144695], [-73.9654247739524, 40.8081949804306], [-73.965609365858, 40.8079419577952], [-73.9657666352931, 40.8080073925037]]], [[[-73.965939361915, 40.8080792566038], [-73.965754771986, 40.8083322788436], [-73.9656686862966, 40.8082964620119], [-73.9658532752431, 40.8080434389893], [-73.965939361915, 40.8080792566038]]], [[[-73.9658671037003, 40.808581248593], [-73.9658292961251, 40.8086000901971], [-73.9657863133959, 40.8086135966333], [-73.9657440404314, 40.8086203765515], [-73.9657089641849, 40.8086216366589], [-73.9656732238409, 40.8086189542789], [-73.9656450258738, 40.8086139022246], [-73.9656212788233, 40.8086074646704], [-73.9655937508082, 40.8085971700394], [-73.9654829384811, 40.8085510665491], [-73.965607388858, 40.8083804827455], [-73.9659461256211, 40.8085214167047], [-73.9658962169037, 40.8085604196712], [-73.9658671037003, 40.808581248593]]]]}, "properties": {"campus_name": "Columbia University (10 lots)", "owner_key": "columbia", "owner_label": "Columbia University", "owner_kind": "institution", "lot_count": 10, "bldg_area_sqft": 409338, "derivation": "contiguous lots, owner family 'columbia', snap=0.0003deg", "kind": "campus"}}, {"type": "Feature", "geometry": {"type": "Polygon", "coordinates": [[[-73.9440056855397, 40.7839581985638], [-73.9436587927711, 40.7844332810153], [-73.943560437056, 40.7845679822], [-73.9432193891255, 40.7850350516359], [-73.9425827281605, 40.7847668171872], [-73.9421780597211, 40.7845963219138], [-73.9427119005308, 40.7843129088181], [-73.9428609120251, 40.7842337989834], [-73.9429778379256, 40.7841474627923], [-73.9435137751189, 40.7837517301041], [-73.9440056855397, 40.7839581985638]]]}, "properties": {"campus_name": "NYC Health + Hospitals / state hospitals (4 lots)", "owner_key": "nysp_hospitals", "owner_label": "NYC Health + Hospitals / state hospitals", "owner_kind": "state", "lot_count": 4, "bldg_area_sqft": 296174, "derivation": "contiguous lots, owner family 'nysp_hospitals', snap=0.0003deg", "kind": "campus"}}, {"type": "Feature", "geometry": {"type": "Polygon", "coordinates": [[[-73.9611450488751, 40.8143123542741], [-73.9614530213204, 40.8144420022738], [-73.9613132552163, 40.8146337659338], [-73.961103078442, 40.8149221344018], [-73.9609132411898, 40.8151825939473], [-73.9607175163034, 40.8154511277125], [-73.9605145004986, 40.8157296614397], [-73.9602065251334, 40.815600011797], [-73.9599174665708, 40.8154783247398], [-73.9601799871165, 40.8151181528904], [-73.9604690444827, 40.8152398392979], [-73.9606052663706, 40.8150529445214], [-73.9606073565064, 40.8150500771444], [-73.9607397092423, 40.8148684883938], [-73.9607681496417, 40.8148804611821], [-73.9608235448334, 40.8148044582523], [-73.9609429561297, 40.8146406226314], [-73.9606254626967, 40.8145069655039], [-73.96071170515, 40.8143886380458], [-73.9607554572851, 40.8143286086751], [-73.9610445123846, 40.8144502936555], [-73.9611450488751, 40.8143123542741]]]}, "properties": {"campus_name": "Columbia University (8 lots)", "owner_key": "columbia", "owner_label": "Columbia University", "owner_kind": "institution", "lot_count": 8, "bldg_area_sqft": 295151, "derivation": "contiguous lots, owner family 'columbia', snap=0.0003deg", "kind": "campus"}}, {"type": "Feature", "geometry": {"type": "Polygon", "coordinates": [[[-74.0130380411901, 40.7189574962988], [-74.0130790994595, 40.7189624240936], [-74.0130721609669, 40.718995303859], [-74.0130205665622, 40.7192447212599], [-74.0129981361082, 40.7193497845041], [-74.0129532722552, 40.7195701613906], [-74.0129252321372, 40.7197025557765], [-74.0129207127036, 40.7197186164123], [-74.0129185920956, 40.7197261525325], [-74.0131059859838, 40.7197486612748], [-74.0134484005617, 40.7197904738374], [-74.0133934414851, 40.7200492885955], [-74.01375943224, 40.7200910984061], [-74.0137459748282, 40.7201594307673], [-74.0137931265828, 40.7201671136048], [-74.0138110757224, 40.7201056129973], [-74.0145284659464, 40.7201977728742], [-74.0145105206986, 40.7202797729109], [-74.0145711449774, 40.7202865983033], [-74.0145117010144, 40.7205368736704], [-74.0141490736256, 40.7204899401316], [-74.0141490665522, 40.7204566275513], [-74.0140906868644, 40.720447238808], [-74.0140794687606, 40.7204856766299], [-74.0139705685842, 40.7204686081942], [-74.0139750517315, 40.7204335877257], [-74.0139323914362, 40.7204310291226], [-74.0139211707858, 40.7204634893067], [-74.0139076975673, 40.7204609290025], [-74.0139177916079, 40.7204122408377], [-74.0138773762176, 40.720407973681], [-74.0138616678972, 40.7204541005844], [-74.0136865294296, 40.7204284984401], [-74.0136898910093, 40.7204003094097], [-74.0136472299387, 40.7203943360161], [-74.0136360096653, 40.7204233778923], [-74.0135551760815, 40.7204122841095], [-74.0135607819809, 40.7203798254575], [-74.013514753785, 40.7203738514927], [-74.0135024109866, 40.7204071646025], [-74.0129702636501, 40.7203431635656], [-74.0129254009691, 40.7205729372346], [-74.0129194911445, 40.7206002808068], [-74.0128659553513, 40.7208479803344], [-74.0132398094949, 40.7208974785544], [-74.0131601715441, 40.7212622085961], [-74.0131444530905, 40.7212605038868], [-74.0130760292244, 40.7215543398991], [-74.013053576998, 40.7215517778358], [-74.0130288798127, 40.7215688660169], [-74.0125974385453, 40.7215181778423], [-74.0125494910152, 40.7215125446169], [-74.0125281798343, 40.7216167530258], [-74.0124990164131, 40.7217585450527], [-74.0124732204951, 40.7218883788698], [-74.012446300448, 40.7220276095391], [-74.0124171395214, 40.7221711089635], [-74.0123700316989, 40.7224068584649], [-74.0123520852612, 40.7224999640601], [-74.0123229215048, 40.7226434642882], [-74.0122853483771, 40.7228407771182], [-74.0122354349744, 40.7230919012829], [-74.012161105032, 40.7234508622444], [-74.012520021135, 40.7215087235412], [-74.0127095288854, 40.7205745445457], [-74.0128843835802, 40.7197142743251], [-74.0129539344377, 40.7193717314483], [-74.0129924838041, 40.7191818644794], [-74.0130380411901, 40.7189574962988]]]}, "properties": {"campus_name": "NYS Department of Transportation (4 lots)", "owner_key": "nys_dot", "owner_label": "NYS Department of Transportation", "owner_kind": "state", "lot_count": 4, "bldg_area_sqft": 266830, "derivation": "contiguous lots, owner family 'nys_dot', snap=0.0003deg", "kind": "campus"}}, {"type": "Feature", "geometry": {"type": "MultiPolygon", "coordinates": [[[[-74.0053410373778, 40.6678696782381], [-74.0054610684047, 40.6678910256471], [-74.0055261308806, 40.667895292763], [-74.0058738883982, 40.6679892345163], [-74.0058851048873, 40.667992648649], [-74.0059008059511, 40.6679542120602], [-74.0059187553625, 40.6679584822835], [-74.0059804456004, 40.6678901470515], [-74.0060084888624, 40.6678935612159], [-74.0061430759911, 40.6676048496337], [-74.0062379422087, 40.6674025447072], [-74.0062664445501, 40.6673417626891], [-74.006246251664, 40.6673357834482], [-74.0063101791859, 40.667199115867], [-74.0067789682338, 40.6661945996101], [-74.0069090942039, 40.6662304675476], [-74.0066806572099, 40.666722387773], [-74.0059658296722, 40.6681849750018], [-74.005972522523, 40.668187076469], [-74.0058908217776, 40.668339844144], [-74.0057972182327, 40.6685987958879], [-74.0056996169539, 40.6688214541883], [-74.0056297752106, 40.6689673582838], [-74.0056053082002, 40.6689674521756], [-74.0055505490635, 40.6690607284613], [-74.0053389791785, 40.6695027106485], [-74.0045878044202, 40.6692904690689], [-74.0046289117095, 40.6692053578525], [-74.0043999093318, 40.6691414392301], [-74.0035528463194, 40.6689050020999], [-74.003283618038, 40.6688239682127], [-74.0024155078132, 40.6685816465345], [-74.0023385277538, 40.6685601582126], [-74.0029007586267, 40.6674035174572], [-74.0029155436472, 40.6673981743237], [-74.0029909332739, 40.6673709291029], [-74.0031331148694, 40.6673220363379], [-74.0032056648204, 40.6672971685316], [-74.0035789399618, 40.6674025447735], [-74.0036998740951, 40.6674366847558], [-74.0036583741872, 40.6675246655775], [-74.0038781035916, 40.6675935486043], [-74.0039253579957, 40.6676083623592], [-74.0040120437317, 40.6676351964756], [-74.0041295214266, 40.6676715624283], [-74.0044626901071, 40.6677638006146], [-74.0044458661414, 40.6678039463297], [-74.0044862523344, 40.6678210274987], [-74.0045816031117, 40.6678372528848], [-74.0046477862543, 40.6678363973882], [-74.0047229438839, 40.6678252874077], [-74.0047633239463, 40.6677723300067], [-74.0048081947178, 40.6677740364123], [-74.0050740593795, 40.6678517529938], [-74.0051449729505, 40.6678721798578], [-74.0051985759551, 40.6678876203463], [-74.0053410373778, 40.6678696782381]], [[-74.0041423456313, 40.6676837676877], [-74.0038956381596, 40.6681943841128], [-74.0038319221309, 40.6683264721491], [-74.0041423456313, 40.6676837676877]]], [[[-74.0038450064465, 40.6695057456332], [-74.0034007834255, 40.6693817523116], [-74.0027600068679, 40.6692028910986], [-74.0027677218965, 40.6691869184432], [-74.0028223044479, 40.6690741104059], [-74.0024837704456, 40.6689796118477], [-74.0025459867127, 40.668850808798], [-74.0028844363147, 40.6689452829152], [-74.0039694322679, 40.6692481381245], [-74.0038450064465, 40.6695057456332]]]]}, "properties": {"campus_name": "RXR / Rudin / Boston Properties (10 lots)", "owner_key": "rbc", "owner_label": "RXR / Rudin / Boston Properties", "owner_kind": "private", "lot_count": 10, "bldg_area_sqft": 254330, "derivation": "contiguous lots, owner family 'rbc', snap=0.0003deg", "kind": "campus"}}, {"type": "Feature", "geometry": {"type": "MultiPolygon", "coordinates": [[[[-73.9569808384607, 40.6658293493634], [-73.9594207466308, 40.666341441746], [-73.9591686328307, 40.6670357513416], [-73.9567269695153, 40.6665242031562], [-73.9569808384607, 40.6658293493634]]], [[[-73.9574008404132, 40.6672349330022], [-73.9572965944059, 40.6672130343187], [-73.9571590215554, 40.6671841361037], [-73.957286057681, 40.6668334944485], [-73.9577755950867, 40.6669363285607], [-73.958403481411, 40.6670682217383], [-73.9583069360981, 40.6673347152058], [-73.958650344744, 40.6674068507738], [-73.9586198597612, 40.667490999272], [-73.9585323558125, 40.6674726189], [-73.9584478010201, 40.6674548562742], [-73.9583598241225, 40.667436377464], [-73.9582723616241, 40.6674180058599], [-73.9581840277892, 40.6673994501534], [-73.958091543399, 40.6673800238799], [-73.9580021703131, 40.6673612488806], [-73.9579208652497, 40.667344171485], [-73.9578518627278, 40.667329675799], [-73.9577838133468, 40.6673153822128], [-73.957689990701, 40.6672956732712], [-73.9576485613405, 40.6672869707522], [-73.9575918377938, 40.6672750549353], [-73.9574993526508, 40.6672556272636], [-73.9574008404132, 40.6672349330022]]]]}, "properties": {"campus_name": "Dormitory Authority of the State of NY (3 lots)", "owner_key": "nys_dasny", "owner_label": "Dormitory Authority of the State of NY", "owner_kind": "state", "lot_count": 3, "bldg_area_sqft": 239717, "derivation": "contiguous lots, owner family 'nys_dasny', snap=0.0003deg", "kind": "campus"}}, {"type": "Feature", "geometry": {"type": "Polygon", "coordinates": [[[-73.9572598343094, 40.809792273093], [-73.957259798738, 40.8097867971578], [-73.957259821194, 40.809781320324], [-73.9572599040963, 40.8097758444327], [-73.957260045135, 40.809770369483], [-73.9572602454091, 40.8097648953916], [-73.9572605060227, 40.8097594222439], [-73.9572608259795, 40.8097539509571], [-73.9572612028623, 40.8097484823692], [-73.95726164008, 40.8097430164814], [-73.9572621378546, 40.8097375533762], [-73.9572626924416, 40.8097320929699], [-73.957263306374, 40.8097266361822], [-73.9572639818504, 40.8097211847714], [-73.9572647141431, 40.8097157352219], [-73.9572655046747, 40.8097102929734], [-73.9572663555434, 40.8097048551801], [-73.9572672633333, 40.8096994218434], [-73.9572682314556, 40.8096939949696], [-73.9572692566094, 40.8096885752276], [-73.9572703420978, 40.8096831609471], [-73.9572714845063, 40.8096777529608], [-73.9572730489076, 40.8096722424815], [-73.9572747169625, 40.8096659765136], [-73.9572760899369, 40.8096614195959], [-73.9572780002155, 40.8096561956097], [-73.9572799388976, 40.8096509779934], [-73.9572819060935, 40.8096457666619], [-73.9572839041131, 40.8096405616161], [-73.9572859293264, 40.8096353637747], [-73.957287982942, 40.8096301713818], [-73.9572900674914, 40.8096249852747], [-73.9572921792346, 40.809619806372], [-73.9572937211238, 40.809616085191], [-73.9572964903481, 40.8096094702685], [-73.9572986886182, 40.8096043121446], [-73.9573009163942, 40.8095991603072], [-73.9573031715803, 40.8095940165956], [-73.9573054550567, 40.8095888810077], [-73.9573077670486, 40.809583751706], [-73.9573101087621, 40.8095786305296], [-73.9573124775568, 40.8095735148012], [-73.9573148760749, 40.8095684098761], [-73.9573173006813, 40.8095633112348], [-73.957319756004, 40.8095582197993], [-73.9573222386264, 40.8095531364896], [-73.9573247485504, 40.8095480613044], [-73.9573272879768, 40.8095429951647], [-73.9573298548137, 40.8095379362307], [-73.9573324499421, 40.809532886258], [-73.9573422016973, 40.8095141379597], [-73.957893164683, 40.8097476559378], [-73.9582174897053, 40.8098851151221], [-73.9581489576791, 40.8099786961966], [-73.9584651597437, 40.8101127100685], [-73.9581885291368, 40.8104904490913], [-73.957871691997, 40.8103560083281], [-73.9576216368731, 40.8102499478394], [-73.9575494557832, 40.81021698377], [-73.957710534226, 40.8099970342207], [-73.957713808111, 40.8099925644158], [-73.9572599927314, 40.8098001956911], [-73.9572598343094, 40.809792273093]]]}, "properties": {"campus_name": "Columbia University (3 lots)", "owner_key": "columbia", "owner_label": "Columbia University", "owner_kind": "institution", "lot_count": 3, "bldg_area_sqft": 239698, "derivation": "contiguous lots, owner family 'columbia', snap=0.0003deg", "kind": "campus"}}, {"type": "Feature", "geometry": {"type": "MultiPolygon", "coordinates": [[[[-73.9293836479685, 40.8172246656767], [-73.9292605238619, 40.8174886295218], [-73.9288572171788, 40.8173847206333], [-73.9289808296468, 40.8171197157059], [-73.929319163974, 40.8172078643659], [-73.9293836479685, 40.8172246656767]]], [[[-73.9295089879194, 40.8180233995848], [-73.9291264891447, 40.8179241328996], [-73.9287045161377, 40.8178146271716], [-73.9288007665588, 40.8175213794877], [-73.9296203842846, 40.8177361334232], [-73.9295089879194, 40.8180233995848]]], [[[-73.9282064595485, 40.8176752967162], [-73.9281178483915, 40.8178682108539], [-73.9284415226876, 40.8179522898592], [-73.9282654145905, 40.8185065678158], [-73.9282270267107, 40.8186273896978], [-73.9282160679444, 40.818661874575], [-73.9281749709166, 40.818651367234], [-73.9280160079695, 40.818610725921], [-73.9277525356763, 40.8185433652046], [-73.9276527495271, 40.8185178518248], [-73.9275518306279, 40.8184920496095], [-73.9275746762391, 40.8184433974576], [-73.9276479257068, 40.8182874008858], [-73.9279648168198, 40.8176125254703], [-73.9282064595485, 40.8176752967162]]]]}, "properties": {"campus_name": "Dormitory Authority of the State of NY (4 lots)", "owner_key": "nys_dasny", "owner_label": "Dormitory Authority of the State of NY", "owner_kind": "state", "lot_count": 4, "bldg_area_sqft": 220255, "derivation": "contiguous lots, owner family 'nys_dasny', snap=0.0003deg", "kind": "campus"}}, {"type": "Feature", "geometry": {"type": "Polygon", "coordinates": [[[-73.9761852185145, 40.6944921949493], [-73.9768999048144, 40.694435729817], [-73.97715776772, 40.6944153549284], [-73.9773523483151, 40.6953793438097], [-73.9774823408339, 40.6960233359161], [-73.976483981884, 40.6959724220778], [-73.9762650258101, 40.69488760589], [-73.9761852185145, 40.6944921949493]]]}, "properties": {"campus_name": "NYC Health + Hospitals / state hospitals (3 lots)", "owner_key": "nysp_hospitals", "owner_label": "NYC Health + Hospitals / state hospitals", "owner_kind": "state", "lot_count": 3, "bldg_area_sqft": 198208, "derivation": "contiguous lots, owner family 'nysp_hospitals', snap=0.0003deg", "kind": "campus"}}, {"type": "Feature", "geometry": {"type": "MultiPolygon", "coordinates": [[[[-73.960237930244, 40.8107291486335], [-73.9600521972553, 40.8109820964962], [-73.9600815292787, 40.8109944515084], [-73.9602124633338, 40.8110496027423], [-73.960264170961, 40.8110713837944], [-73.9604499021823, 40.810818435676], [-73.9606607003504, 40.8109072266652], [-73.9604749685817, 40.8111601751179], [-73.9603444475548, 40.8111051972487], [-73.9601699801899, 40.8113428010223], [-73.9600379968538, 40.8112872072388], [-73.959907061266, 40.8112320539684], [-73.959665588518, 40.8111303404895], [-73.9598400571267, 40.810892737471], [-73.9600254339033, 40.8106396404065], [-73.960237930244, 40.8107291486335]]], [[[-73.9607953380956, 40.8112951178863], [-73.9607980045379, 40.8112914843811], [-73.9611358658062, 40.8114337945003], [-73.9609587338487, 40.8116750320475], [-73.9606208718426, 40.8115327222511], [-73.9603005026399, 40.8113977781672], [-73.9604749685817, 40.8111601751179], [-73.9605476348235, 40.8111907827574], [-73.9607953380956, 40.8112951178863]]]]}, "properties": {"campus_name": "Columbia University (7 lots)", "owner_key": "columbia", "owner_label": "Columbia University", "owner_kind": "institution", "lot_count": 7, "bldg_area_sqft": 197786, "derivation": "contiguous lots, owner family 'columbia', snap=0.0003deg", "kind": "campus"}}, {"type": "Feature", "geometry": {"type": "Polygon", "coordinates": [[[-73.9664674519257, 40.8033728591528], [-73.9666029544185, 40.8034299216686], [-73.9668732220594, 40.8035437363001], [-73.9668063200643, 40.8036354049357], [-73.9667414719233, 40.8037242583147], [-73.9665651390721, 40.803965866068], [-73.9661593672667, 40.8037949869277], [-73.9662913194148, 40.8036141919048], [-73.9663357010273, 40.8035533807099], [-73.9664005496538, 40.8034645275567], [-73.9664674519257, 40.8033728591528]]]}, "properties": {"campus_name": "Columbia University (3 lots)", "owner_key": "columbia", "owner_label": "Columbia University", "owner_kind": "institution", "lot_count": 3, "bldg_area_sqft": 180048, "derivation": "contiguous lots, owner family 'columbia', snap=0.0003deg", "kind": "campus"}}, {"type": "Feature", "geometry": {"type": "MultiPolygon", "coordinates": [[[[-73.9505524100942, 40.8147927369737], [-73.9509131523354, 40.8142919462136], [-73.9513819994624, 40.8144892817609], [-73.9512020113211, 40.8147404777899], [-73.9510268914124, 40.8149827156872], [-73.9510874398205, 40.8150095294221], [-73.9509494663138, 40.8151970470264], [-73.9508050979221, 40.8151353735644], [-73.9509412355759, 40.8149481119331], [-73.9505524100942, 40.8147927369737]]], [[[-73.9505620047148, 40.8152890294729], [-73.9504068545597, 40.815226751974], [-73.9505198506257, 40.8150802761591], [-73.9506721529013, 40.8151401209003], [-73.9505620047148, 40.8152890294729]]]]}, "properties": {"campus_name": "Dormitory Authority of the State of NY (3 lots)", "owner_key": "nys_dasny", "owner_label": "Dormitory Authority of the State of NY", "owner_kind": "state", "lot_count": 3, "bldg_area_sqft": 178000, "derivation": "contiguous lots, owner family 'nys_dasny', snap=0.0003deg", "kind": "campus"}}, {"type": "Feature", "geometry": {"type": "Polygon", "coordinates": [[[-73.9591486504467, 40.8102703162995], [-73.9593903883164, 40.8103721435754], [-73.959211863902, 40.8106152717035], [-73.9592029474339, 40.8106274126194], [-73.9592889269329, 40.8106636295183], [-73.9591161650606, 40.8108989081779], [-73.9589557985233, 40.8108313579535], [-73.9587884474605, 40.810760863129], [-73.9584688559072, 40.8106262401512], [-73.9586411270946, 40.8103916341425], [-73.9588290617318, 40.8101356933886], [-73.9591486504467, 40.8102703162995]]]}, "properties": {"campus_name": "Columbia University (5 lots)", "owner_key": "columbia", "owner_label": "Columbia University", "owner_kind": "institution", "lot_count": 5, "bldg_area_sqft": 167428, "derivation": "contiguous lots, owner family 'columbia', snap=0.0003deg", "kind": "campus"}}, {"type": "Feature", "geometry": {"type": "MultiPolygon", "coordinates": [[[[-73.9276091451542, 40.8166173325353], [-73.9279565573063, 40.8167083175822], [-73.9279328634857, 40.816767311419], [-73.9275868782434, 40.8166783948373], [-73.9275612788685, 40.8167486004193], [-73.9274750610833, 40.8167264426082], [-73.9275675220024, 40.816472882894], [-73.9276535969085, 40.8164954259663], [-73.9276091451542, 40.8166173325353]]], [[[-73.9271412652165, 40.816361247121], [-73.9273856974768, 40.816425263704], [-73.9267685793414, 40.8172100178627], [-73.9268854188884, 40.816941661904], [-73.9268006957467, 40.8169194720766], [-73.9268292251418, 40.8168543626203], [-73.9269145370605, 40.816876707653], [-73.9271412652165, 40.816361247121]]], [[[-73.9270457482026, 40.8173621569202], [-73.9272682028771, 40.8174193267949], [-73.9269693770863, 40.8180519497075], [-73.9273075311744, 40.8181388532691], [-73.9271901558645, 40.8183873416173], [-73.9265151273452, 40.8182138621673], [-73.926907280971, 40.8173265707656], [-73.9270457482026, 40.8173621569202]]]]}, "properties": {"campus_name": "Dormitory Authority of the State of NY (4 lots)", "owner_key": "nys_dasny", "owner_label": "Dormitory Authority of the State of NY", "owner_kind": "state", "lot_count": 4, "bldg_area_sqft": 126882, "derivation": "contiguous lots, owner family 'nys_dasny', snap=0.0003deg", "kind": "campus"}}, {"type": "Feature", "geometry": {"type": "Polygon", "coordinates": [[[-74.0106892568438, 40.7356694159891], [-74.0106874903275, 40.7356923080284], [-74.0106758113192, 40.7358436637429], [-74.010670208618, 40.7359205369996], [-74.0106646058832, 40.7359897253057], [-74.0106556356703, 40.7360777021769], [-74.0106433089667, 40.7362237620802], [-74.0106220111048, 40.7364748851102], [-74.0106025768938, 40.7367080214206], [-74.0105917500091, 40.7368379015258], [-74.0105469164442, 40.7373589358829], [-74.0105289861074, 40.7375878501847], [-74.0105174031141, 40.7377164014771], [-74.0105032035484, 40.7378739924765], [-74.0104852688874, 40.7380772809548], [-74.0106087945883, 40.7380892284511], [-74.0106099162078, 40.7380772695358], [-74.0110332688644, 40.7380960197505], [-74.0110321486717, 40.738108833175], [-74.0111556737809, 40.7381156543902], [-74.0111579173315, 40.7381019880231], [-74.0111792535611, 40.7381028387859], [-74.0111770087705, 40.738115652321], [-74.0112275437814, 40.738119063921], [-74.0112297863639, 40.7381062530617], [-74.0112859339771, 40.7381079558294], [-74.0112859355687, 40.7381173499544], [-74.0112679703228, 40.7381267475942], [-74.0112567610378, 40.7382446224459], [-74.0112736045233, 40.738245474468], [-74.0112724854204, 40.7382651200916], [-74.0112545174457, 40.7382651218493], [-74.011246676716, 40.7383855573762], [-74.0112646441996, 40.738388972135], [-74.0112646475218, 40.7384086176496], [-74.0104606724192, 40.7383719915057], [-74.0104594895725, 40.7383864852472], [-74.0104516469876, 40.7385043578701], [-74.0104370763969, 40.7386792459647], [-74.0103827968549, 40.7386764089334], [-74.010414140129, 40.7383542702136], [-74.0104440019725, 40.7380473519943], [-74.0104764166169, 40.7377141981723], [-74.0105101026671, 40.7373821589829], [-74.0105461323713, 40.7370269854878], [-74.0105786250401, 40.7367066871514], [-74.0106121060273, 40.7363800374661], [-74.0106486647494, 40.736023351931], [-74.0106826214139, 40.735692049216], [-74.0107089888072, 40.7354450160772], [-74.0106993462134, 40.7355558141194], [-74.0106892568438, 40.7356694159891]]]}, "properties": {"campus_name": "NYS Department of Transportation (4 lots)", "owner_key": "nys_dot", "owner_label": "NYS Department of Transportation", "owner_kind": "state", "lot_count": 4, "bldg_area_sqft": 125760, "derivation": "contiguous lots, owner family 'nys_dot', snap=0.0003deg", "kind": "campus"}}]}